{"type": "FeatureCollection", "features": [{"type": "Feature", "geometry": {"type": "Point", "coordinates": [126.65558690235602, 37.38421051200665]}, "properties": {"kind": "litter", "cls": "mouse", "n": 2, "score": 0.9555458426475525, "frame": 15181}}, {"type": "Feature", "geometry": {"type": "Point", "coordinates": [126.65639227415528, 37.383500180729186]}, "properties": {"kind": "obstacle", "cls": "person", "n": 11, "score": 0.9339032769203186, "frame": 25501}}, {"type": "Feature", "geometry": {"type": "Point", "coordinates": [126.65648561519876, 37.38503717040511]}, "properties": {"kind": "obstacle", "cls": "person", "n": 2, "score": 0.9298045039176941, "frame": 241}}, {"type": "Feature", "geometry": {"type": "Point", "coordinates": [126.65561034596466, 37.38420312119184]}, "properties": {"kind": "obstacle", "cls": "person", "n": 3, "score": 0.9183385968208313, "frame": 15121}}, {"type": "Feature", "geometry": {"type": "Point", "coordinates": [126.6565094089074, 37.385031372078615]}, "properties": {"kind": "obstacle", "cls": "person", "n": 8, "score": 0.9154435992240906, "frame": 181}}, {"type": "Feature", "geometry": {"type": "Point", "coordinates": [126.65616316292628, 37.38512923393866]}, "properties": {"kind": "obstacle", "cls": "person", "n": 3, "score": 0.9113760590553284, "frame": 2941}}, {"type": "Feature", "geometry": {"type": "Point", "coordinates": [126.65627868130703, 37.38348701557217]}, "properties": {"kind": "obstacle", "cls": "person", "n": 4, "score": 0.9043564796447754, "frame": 24841}}, {"type": "Feature", "geometry": {"type": "Point", "coordinates": [126.65559576884048, 37.38421291095738]}, "properties": {"kind": "obstacle", "cls": "person", "n": 2, "score": 0.9008116722106934, "frame": 15001}}, {"type": "Feature", "geometry": {"type": "Point", "coordinates": [126.65553495169476, 37.384470629102914]}, "properties": {"kind": "litter", "cls": "frisbee", "n": 2, "score": 0.900046706199646, "frame": 12301}}, {"type": "Feature", "geometry": {"type": "Point", "coordinates": [126.6555909419011, 37.3845209226975]}, "properties": {"kind": "obstacle", "cls": "person", "n": 3, "score": 0.8980175256729126, "frame": 12181}}, {"type": "Feature", "geometry": {"type": "Point", "coordinates": [126.65608301954111, 37.38500242090285]}, "properties": {"kind": "obstacle", "cls": "person", "n": 4, "score": 0.8942487835884094, "frame": 4621}}, {"type": "Feature", "geometry": {"type": "Point", "coordinates": [126.65587287911984, 37.38399797910809]}, "properties": {"kind": "obstacle", "cls": "person", "n": 2, "score": 0.8839702606201172, "frame": 17401}}, {"type": "Feature", "geometry": {"type": "Point", "coordinates": [126.65592482310984, 37.38396854147473]}, "properties": {"kind": "obstacle", "cls": "fire hydrant", "n": 3, "score": 0.8730548620223999, "frame": 17581}}, {"type": "Feature", "geometry": {"type": "Point", "coordinates": [126.65596206689165, 37.38388847378345]}, "properties": {"kind": "obstacle", "cls": "person", "n": 2, "score": 0.8704173564910889, "frame": 19021}}, {"type": "Feature", "geometry": {"type": "Point", "coordinates": [126.65615123911795, 37.38509156578243]}, "properties": {"kind": "obstacle", "cls": "person", "n": 4, "score": 0.8689921498298645, "frame": 3661}}, {"type": "Feature", "geometry": {"type": "Point", "coordinates": [126.65609284177931, 37.385016667215645]}, "properties": {"kind": "obstacle", "cls": "person", "n": 2, "score": 0.8682848215103149, "frame": 4501}}, {"type": "Feature", "geometry": {"type": "Point", "coordinates": [126.65558385968673, 37.38422351892779]}, "properties": {"kind": "obstacle", "cls": "car", "n": 4, "score": 0.8580297231674194, "frame": 14881}}, {"type": "Feature", "geometry": {"type": "Point", "coordinates": [126.65607502949337, 37.38501271781819]}, "properties": {"kind": "litter", "cls": "suitcase", "n": 3, "score": 0.846051812171936, "frame": 4621}}, {"type": "Feature", "geometry": {"type": "Point", "coordinates": [126.65619627280863, 37.383449476915345]}, "properties": {"kind": "obstacle", "cls": "person", "n": 2, "score": 0.8431577086448669, "frame": 23881}}, {"type": "Feature", "geometry": {"type": "Point", "coordinates": [126.65627995593513, 37.383492794550726]}, "properties": {"kind": "obstacle", "cls": "car", "n": 9, "score": 0.8407052159309387, "frame": 25021}}, {"type": "Feature", "geometry": {"type": "Point", "coordinates": [126.65556529992794, 37.38448185302955]}, "properties": {"kind": "obstacle", "cls": "person", "n": 4, "score": 0.8351572155952454, "frame": 10501}}, {"type": "Feature", "geometry": {"type": "Point", "coordinates": [126.65545367402412, 37.38438531095003]}, "properties": {"kind": "obstacle", "cls": "person", "n": 2, "score": 0.8345688581466675, "frame": 13081}}, {"type": "Feature", "geometry": {"type": "Point", "coordinates": [126.65556464812677, 37.38448316039541]}, "properties": {"kind": "litter", "cls": "frisbee", "n": 4, "score": 0.8297083973884583, "frame": 10081}}, {"type": "Feature", "geometry": {"type": "Point", "coordinates": [126.65635569374444, 37.385109415683566]}, "properties": {"kind": "obstacle", "cls": "person", "n": 2, "score": 0.8042657971382141, "frame": 1501}}, {"type": "Feature", "geometry": {"type": "Point", "coordinates": [126.65613292013704, 37.3850913666506]}, "properties": {"kind": "obstacle", "cls": "person", "n": 2, "score": 0.8009165525436401, "frame": 3961}}, {"type": "Feature", "geometry": {"type": "Point", "coordinates": [126.65594661524793, 37.38397148315302]}, "properties": {"kind": "obstacle", "cls": "fire hydrant", "n": 4, "score": 0.7975631356239319, "frame": 17821}}, {"type": "Feature", "geometry": {"type": "Point", "coordinates": [126.65558925846494, 37.38420864507206]}, "properties": {"kind": "obstacle", "cls": "car", "n": 7, "score": 0.7873804569244385, "frame": 15301}}, {"type": "Feature", "geometry": {"type": "Point", "coordinates": [126.65606395852431, 37.38502065382993]}, "properties": {"kind": "obstacle", "cls": "person", "n": 2, "score": 0.7801718711853027, "frame": 4681}}, {"type": "Feature", "geometry": {"type": "Point", "coordinates": [126.65592321430577, 37.3836237472627]}, "properties": {"kind": "obstacle", "cls": "stop sign", "n": 2, "score": 0.7751560211181641, "frame": 21601}}, {"type": "Feature", "geometry": {"type": "Point", "coordinates": [126.65626716908753, 37.385153534913265]}, "properties": {"kind": "obstacle", "cls": "car", "n": 7, "score": 0.7715008854866028, "frame": 2401}}, {"type": "Feature", "geometry": {"type": "Point", "coordinates": [126.65594663287986, 37.38397147205399]}, "properties": {"kind": "obstacle", "cls": "person", "n": 13, "score": 0.7587533593177795, "frame": 18301}}, {"type": "Feature", "geometry": {"type": "Point", "coordinates": [126.65588473203606, 37.384005422016706]}, "properties": {"kind": "litter", "cls": "suitcase", "n": 3, "score": 0.7453553080558777, "frame": 17401}}, {"type": "Feature", "geometry": {"type": "Point", "coordinates": [126.6565122917111, 37.385034744886205]}, "properties": {"kind": "litter", "cls": "cell phone", "n": 2, "score": 0.7338942289352417, "frame": 181}}, {"type": "Feature", "geometry": {"type": "Point", "coordinates": [126.65643830498203, 37.38353576803141]}, "properties": {"kind": "obstacle", "cls": "person", "n": 3, "score": 0.7131662368774414, "frame": 26161}}, {"type": "Feature", "geometry": {"type": "Point", "coordinates": [126.65593346311587, 37.38398105350083]}, "properties": {"kind": "obstacle", "cls": "car", "n": 5, "score": 0.7049448490142822, "frame": 17761}}, {"type": "Feature", "geometry": {"type": "Point", "coordinates": [126.65569624150959, 37.38462866485882]}, "properties": {"kind": "litter", "cls": "cake", "n": 2, "score": 0.6846978068351746, "frame": 8821}}, {"type": "Feature", "geometry": {"type": "Point", "coordinates": [126.65551645463941, 37.38426993234647]}, "properties": {"kind": "obstacle", "cls": "bus", "n": 2, "score": 0.6775884032249451, "frame": 14701}}, {"type": "Feature", "geometry": {"type": "Point", "coordinates": [126.65551329741768, 37.38427563742616]}, "properties": {"kind": "obstacle", "cls": "car", "n": 3, "score": 0.6698019504547119, "frame": 14641}}, {"type": "Feature", "geometry": {"type": "Point", "coordinates": [126.65546478968082, 37.38439507051386]}, "properties": {"kind": "obstacle", "cls": "fire hydrant", "n": 2, "score": 0.6581853628158569, "frame": 13021}}, {"type": "Feature", "geometry": {"type": "Point", "coordinates": [126.65590035211883, 37.38485185196927]}, "properties": {"kind": "obstacle", "cls": "car", "n": 12, "score": 0.6513895392417908, "frame": 7321}}, {"type": "Feature", "geometry": {"type": "Point", "coordinates": [126.6555127225008, 37.38427743757553]}, "properties": {"kind": "litter", "cls": "Styrofoam_Piece", "n": 5, "score": 0.6384424567222595, "frame": 14521}}, {"type": "Feature", "geometry": {"type": "Point", "coordinates": [126.6557035068809, 37.38463329136085]}, "properties": {"kind": "obstacle", "cls": "fire hydrant", "n": 5, "score": 0.6278162002563477, "frame": 9061}}, {"type": "Feature", "geometry": {"type": "Point", "coordinates": [126.65650414797246, 37.385032672961685]}, "properties": {"kind": "litter", "cls": "tv", "n": 2, "score": 0.6260112524032593, "frame": 121}}, {"type": "Feature", "geometry": {"type": "Point", "coordinates": [126.65591269358794, 37.38484751708142]}, "properties": {"kind": "litter", "cls": "frisbee", "n": 2, "score": 0.6239897012710571, "frame": 6661}}, {"type": "Feature", "geometry": {"type": "Point", "coordinates": [126.65570599521276, 37.3846347279555]}, "properties": {"kind": "litter", "cls": "surfboard", "n": 2, "score": 0.6178929805755615, "frame": 8581}}, {"type": "Feature", "geometry": {"type": "Point", "coordinates": [126.65554417033252, 37.3845011207728]}, "properties": {"kind": "litter", "cls": "bed", "n": 5, "score": 0.6057496070861816, "frame": 11221}}, {"type": "Feature", "geometry": {"type": "Point", "coordinates": [126.65590053076001, 37.38485186306717]}, "properties": {"kind": "litter", "cls": "airplane", "n": 6, "score": 0.6033607125282288, "frame": 7261}}, {"type": "Feature", "geometry": {"type": "Point", "coordinates": [126.65613437413721, 37.383485980335436]}, "properties": {"kind": "litter", "cls": "frisbee", "n": 2, "score": 0.5834712982177734, "frame": 23401}}, {"type": "Feature", "geometry": {"type": "Point", "coordinates": [126.65590777869942, 37.38483436631033]}, "properties": {"kind": "obstacle", "cls": "car", "n": 2, "score": 0.5813109874725342, "frame": 6601}}, {"type": "Feature", "geometry": {"type": "Point", "coordinates": [126.65625835936088, 37.38347692042754]}, "properties": {"kind": "litter", "cls": "Plastic_Buoy", "n": 4, "score": 0.5784165263175964, "frame": 24121}}, {"type": "Feature", "geometry": {"type": "Point", "coordinates": [126.65556441228938, 37.38448208522036]}, "properties": {"kind": "litter", "cls": "cat", "n": 2, "score": 0.5781609416007996, "frame": 10681}}, {"type": "Feature", "geometry": {"type": "Point", "coordinates": [126.65556263503689, 37.384228431735096]}, "properties": {"kind": "litter", "cls": "Styrofoam_Buoy", "n": 3, "score": 0.5764693021774292, "frame": 14881}}, {"type": "Feature", "geometry": {"type": "Point", "coordinates": [126.65543664653538, 37.384287627655056]}, "properties": {"kind": "obstacle", "cls": "fire hydrant", "n": 2, "score": 0.5667094588279724, "frame": 13921}}, {"type": "Feature", "geometry": {"type": "Point", "coordinates": [126.6554395312525, 37.38428445354947]}, "properties": {"kind": "litter", "cls": "Plastic_Buoy", "n": 4, "score": 0.5558058619499207, "frame": 13921}}, {"type": "Feature", "geometry": {"type": "Point", "coordinates": [126.6556965634223, 37.38462909642273]}, "properties": {"kind": "litter", "cls": "knife", "n": 2, "score": 0.5504851341247559, "frame": 8821}}, {"type": "Feature", "geometry": {"type": "Point", "coordinates": [126.65570442592539, 37.384634352514134]}, "properties": {"kind": "obstacle", "cls": "car", "n": 2, "score": 0.5317620038986206, "frame": 8941}}, {"type": "Feature", "geometry": {"type": "Point", "coordinates": [126.6554935595703, 37.38429215601491]}, "properties": {"kind": "litter", "cls": "Styrofoam_Buoy", "n": 3, "score": 0.5234731435775757, "frame": 14221}}, {"type": "Feature", "geometry": {"type": "Point", "coordinates": [126.65555958510711, 37.38454407588127]}, "properties": {"kind": "obstacle", "cls": "person", "n": 4, "score": 0.5207114815711975, "frame": 11521}}, {"type": "Feature", "geometry": {"type": "Point", "coordinates": [126.65580968122825, 37.38409105717114]}, "properties": {"kind": "litter", "cls": "Styrofoam_Buoy", "n": 7, "score": 0.520387589931488, "frame": 16681}}, {"type": "Feature", "geometry": {"type": "Point", "coordinates": [126.65580847038854, 37.38409327386419]}, "properties": {"kind": "obstacle", "cls": "car", "n": 5, "score": 0.5075267553329468, "frame": 16321}}, {"type": "Feature", "geometry": {"type": "Point", "coordinates": [126.65584608714633, 37.384026413454684]}, "properties": {"kind": "litter", "cls": "Styrofoam_Piece", "n": 2, "score": 0.4989943504333496, "frame": 17101}}, {"type": "Feature", "geometry": {"type": "Point", "coordinates": [126.65570348711566, 37.38463326631606]}, "properties": {"kind": "litter", "cls": "Plastic_Buoy", "n": 10, "score": 0.4943275451660156, "frame": 9061}}, {"type": "Feature", "geometry": {"type": "Point", "coordinates": [126.6562758404445, 37.383488489374955]}, "properties": {"kind": "obstacle", "cls": "bus", "n": 5, "score": 0.49214330315589905, "frame": 24541}}, {"type": "Feature", "geometry": {"type": "Point", "coordinates": [126.65592751010813, 37.38397960769256]}, "properties": {"kind": "litter", "cls": "Styrofoam_Buoy", "n": 2, "score": 0.481361448764801, "frame": 17701}}, {"type": "Feature", "geometry": {"type": "Point", "coordinates": [126.65551325849665, 37.38427004650417]}, "properties": {"kind": "obstacle", "cls": "person", "n": 2, "score": 0.47523120045661926, "frame": 14461}}, {"type": "Feature", "geometry": {"type": "Point", "coordinates": [126.65590102028338, 37.383649962202355]}, "properties": {"kind": "litter", "cls": "Plastic_Buoy", "n": 2, "score": 0.4691319167613983, "frame": 21481}}, {"type": "Feature", "geometry": {"type": "Point", "coordinates": [126.65627850662345, 37.383491019500234]}, "properties": {"kind": "litter", "cls": "Plastic_Buoy", "n": 2, "score": 0.46066609025001526, "frame": 24541}}, {"type": "Feature", "geometry": {"type": "Point", "coordinates": [126.65552767473679, 37.38425999181711]}, "properties": {"kind": "litter", "cls": "Styrofoam_Buoy", "n": 2, "score": 0.4588842988014221, "frame": 14761}}, {"type": "Feature", "geometry": {"type": "Point", "coordinates": [126.65569242578124, 37.38463263723092]}, "properties": {"kind": "litter", "cls": "PET_Bottle", "n": 18, "score": 0.4554964303970337, "frame": 9061}}, {"type": "Feature", "geometry": {"type": "Point", "coordinates": [126.65626237615696, 37.38348094448899]}, "properties": {"kind": "litter", "cls": "Plastic_ETC", "n": 10, "score": 0.45373836159706116, "frame": 24601}}, {"type": "Feature", "geometry": {"type": "Point", "coordinates": [126.65609753607295, 37.38351642582312]}, "properties": {"kind": "litter", "cls": "airplane", "n": 2, "score": 0.4536622166633606, "frame": 23221}}, {"type": "Feature", "geometry": {"type": "Point", "coordinates": [126.65544479332848, 37.38428552135679]}, "properties": {"kind": "litter", "cls": "bottle", "n": 2, "score": 0.45142924785614014, "frame": 13921}}, {"type": "Feature", "geometry": {"type": "Point", "coordinates": [126.65593795280768, 37.383988465023506]}, "properties": {"kind": "litter", "cls": "Styrofoam_Piece", "n": 3, "score": 0.44956159591674805, "frame": 17701}}, {"type": "Feature", "geometry": {"type": "Point", "coordinates": [126.65580810337083, 37.384093260719474]}, "properties": {"kind": "obstacle", "cls": "bus", "n": 3, "score": 0.42720094323158264, "frame": 16681}}, {"type": "Feature", "geometry": {"type": "Point", "coordinates": [126.65588406161014, 37.38383855058844]}, "properties": {"kind": "litter", "cls": "Styrofoam_Piece", "n": 4, "score": 0.41439172625541687, "frame": 19381}}, {"type": "Feature", "geometry": {"type": "Point", "coordinates": [126.65581175269705, 37.38374605759847]}, "properties": {"kind": "litter", "cls": "Styrofoam_Piece", "n": 2, "score": 0.41071704030036926, "frame": 20281}}, {"type": "Feature", "geometry": {"type": "Point", "coordinates": [126.6557399771865, 37.38466862919012]}, "properties": {"kind": "litter", "cls": "Styrofoam_Buoy", "n": 2, "score": 0.409913569688797, "frame": 8401}}, {"type": "Feature", "geometry": {"type": "Point", "coordinates": [126.65554454658755, 37.38449537171814]}, "properties": {"kind": "obstacle", "cls": "bench", "n": 3, "score": 0.40086933970451355, "frame": 11101}}, {"type": "Feature", "geometry": {"type": "Point", "coordinates": [126.65602634277013, 37.3849623654209]}, "properties": {"kind": "litter", "cls": "airplane", "n": 2, "score": 0.3955084979534149, "frame": 5941}}, {"type": "Feature", "geometry": {"type": "Point", "coordinates": [126.65557726976203, 37.38452852185943]}, "properties": {"kind": "litter", "cls": "Styrofoam_Piece", "n": 3, "score": 0.38625574111938477, "frame": 12121}}, {"type": "Feature", "geometry": {"type": "Point", "coordinates": [126.65635100659671, 37.385101495657416]}, "properties": {"kind": "litter", "cls": "suitcase", "n": 2, "score": 0.3750452995300293, "frame": 1441}}, {"type": "Feature", "geometry": {"type": "Point", "coordinates": [126.65558107948333, 37.384204873856575]}, "properties": {"kind": "litter", "cls": "Styrofoam_Piece", "n": 2, "score": 0.36930128931999207, "frame": 15061}}, {"type": "Feature", "geometry": {"type": "Point", "coordinates": [126.65569778878722, 37.38462962299657]}, "properties": {"kind": "litter", "cls": "Styrofoam_Buoy", "n": 2, "score": 0.3687446117401123, "frame": 8761}}, {"type": "Feature", "geometry": {"type": "Point", "coordinates": [126.6556672259624, 37.384174588167134]}, "properties": {"kind": "litter", "cls": "Plastic_ETC", "n": 2, "score": 0.3605594038963318, "frame": 15901}}, {"type": "Feature", "geometry": {"type": "Point", "coordinates": [126.65582412390295, 37.38368932599005]}, "properties": {"kind": "litter", "cls": "Plastic_ETC", "n": 3, "score": 0.3563532531261444, "frame": 21121}}, {"type": "Feature", "geometry": {"type": "Point", "coordinates": [126.65549582364044, 37.38427856722252]}, "properties": {"kind": "litter", "cls": "Styrofoam_Piece", "n": 2, "score": 0.3562397360801697, "frame": 14461}}, {"type": "Feature", "geometry": {"type": "Point", "coordinates": [126.65625978273822, 37.38348414448495]}, "properties": {"kind": "litter", "cls": "surfboard", "n": 2, "score": 0.35505127906799316, "frame": 24241}}, {"type": "Feature", "geometry": {"type": "Point", "coordinates": [126.65581177197234, 37.383746074544185]}, "properties": {"kind": "litter", "cls": "Styrofoam_Buoy", "n": 2, "score": 0.35425296425819397, "frame": 20281}}, {"type": "Feature", "geometry": {"type": "Point", "coordinates": [126.65639274188139, 37.383502303240846]}, "properties": {"kind": "litter", "cls": "Plastic_ETC", "n": 2, "score": 0.34024548530578613, "frame": 25681}}, {"type": "Feature", "geometry": {"type": "Point", "coordinates": [126.655725907878, 37.384660044551424]}, "properties": {"kind": "litter", "cls": "Styrofoam_Piece", "n": 3, "score": 0.33372625708580017, "frame": 8461}}, {"type": "Feature", "geometry": {"type": "Point", "coordinates": [126.65580814164504, 37.384093395377306]}, "properties": {"kind": "obstacle", "cls": "truck", "n": 2, "score": 0.32211145758628845, "frame": 16381}}]}