{"type": "FeatureCollection", "features": [{"type": "Feature", "geometry": {"type": "Point", "coordinates": [126.65701906002278, 37.384316114314494]}, "properties": {"kind": "obstacle", "cls": "person", "n": 8, "score": 0.9477960467338562, "frame": 5131}}, {"type": "Feature", "geometry": {"type": "Point", "coordinates": [126.65700079261062, 37.38429331395847]}, "properties": {"kind": "obstacle", "cls": "person", "n": 10, "score": 0.9447258114814758, "frame": 5041}}, {"type": "Feature", "geometry": {"type": "Point", "coordinates": [126.65707236591666, 37.38428143880456]}, "properties": {"kind": "obstacle", "cls": "person", "n": 26, "score": 0.9409856796264648, "frame": 4261}}, {"type": "Feature", "geometry": {"type": "Point", "coordinates": [126.65713467382479, 37.3842587376387]}, "properties": {"kind": "obstacle", "cls": "person", "n": 8, "score": 0.93606036901474, "frame": 5551}}, {"type": "Feature", "geometry": {"type": "Point", "coordinates": [126.65704961334411, 37.384287268975704]}, "properties": {"kind": "obstacle", "cls": "person", "n": 9, "score": 0.9357081055641174, "frame": 4861}}, {"type": "Feature", "geometry": {"type": "Point", "coordinates": [126.65700357485665, 37.38430622946297]}, "properties": {"kind": "obstacle", "cls": "person", "n": 3, "score": 0.9298812747001648, "frame": 4621}}, {"type": "Feature", "geometry": {"type": "Point", "coordinates": [126.65702792673528, 37.38426920853283]}, "properties": {"kind": "obstacle", "cls": "person", "n": 4, "score": 0.9284114837646484, "frame": 4921}}, {"type": "Feature", "geometry": {"type": "Point", "coordinates": [126.65705445740937, 37.38424306886929]}, "properties": {"kind": "obstacle", "cls": "person", "n": 30, "score": 0.9058703184127808, "frame": 3301}}, {"type": "Feature", "geometry": {"type": "Point", "coordinates": [126.65704678892041, 37.384308123068266]}, "properties": {"kind": "obstacle", "cls": "person", "n": 6, "score": 0.893191397190094, "frame": 4741}}, {"type": "Feature", "geometry": {"type": "Point", "coordinates": [126.65700675952928, 37.38424713195668]}, "properties": {"kind": "litter", "cls": "scissors", "n": 7, "score": 0.8741761445999146, "frame": 4321}}, {"type": "Feature", "geometry": {"type": "Point", "coordinates": [126.65706633525035, 37.38433563814885]}, "properties": {"kind": "litter", "cls": "rubbish", "n": 2, "score": 0.8316466212272644, "frame": 4681}}, {"type": "Feature", "geometry": {"type": "Point", "coordinates": [126.6570493068693, 37.384258012321254]}, "properties": {"kind": "litter", "cls": "rubbish", "n": 96, "score": 0.816195547580719, "frame": 5221}}, {"type": "Feature", "geometry": {"type": "Point", "coordinates": [126.65699497669016, 37.3842729527446]}, "properties": {"kind": "litter", "cls": "rubbish", "n": 70, "score": 0.815986156463623, "frame": 3781}}, {"type": "Feature", "geometry": {"type": "Point", "coordinates": [126.65700715925853, 37.38426836946927]}, "properties": {"kind": "obstacle", "cls": "person", "n": 3, "score": 0.8087068200111389, "frame": 3841}}, {"type": "Feature", "geometry": {"type": "Point", "coordinates": [126.65704765912447, 37.38426250785452]}, "properties": {"kind": "obstacle", "cls": "chair", "n": 2, "score": 0.7888427376747131, "frame": 5281}}, {"type": "Feature", "geometry": {"type": "Point", "coordinates": [126.65706016432624, 37.38424120570081]}, "properties": {"kind": "obstacle", "cls": "chair", "n": 2, "score": 0.7866147756576538, "frame": 5281}}, {"type": "Feature", "geometry": {"type": "Point", "coordinates": [126.65703340803006, 37.38434084517088]}, "properties": {"kind": "litter", "cls": "rubbish", "n": 2, "score": 0.7708775401115417, "frame": 5101}}, {"type": "Feature", "geometry": {"type": "Point", "coordinates": [126.65712614983768, 37.38428370187725]}, "properties": {"kind": "litter", "cls": "rubbish", "n": 6, "score": 0.7640896439552307, "frame": 4801}}, {"type": "Feature", "geometry": {"type": "Point", "coordinates": [126.65710104062944, 37.38429447935036]}, "properties": {"kind": "obstacle", "cls": "chair", "n": 9, "score": 0.7632405161857605, "frame": 5431}}, {"type": "Feature", "geometry": {"type": "Point", "coordinates": [126.657039853921, 37.38428532938489]}, "properties": {"kind": "litter", "cls": "rubbish", "n": 29, "score": 0.7606290578842163, "frame": 5101}}, {"type": "Feature", "geometry": {"type": "Point", "coordinates": [126.65708812866289, 37.38427877585356]}, "properties": {"kind": "litter", "cls": "rubbish", "n": 16, "score": 0.754097044467926, "frame": 4801}}, {"type": "Feature", "geometry": {"type": "Point", "coordinates": [126.6571003886071, 37.38433370136666]}, "properties": {"kind": "litter", "cls": "rubbish", "n": 4, "score": 0.7470282912254333, "frame": 5191}}, {"type": "Feature", "geometry": {"type": "Point", "coordinates": [126.65700387862844, 37.384245055673794]}, "properties": {"kind": "litter", "cls": "rubbish", "n": 14, "score": 0.7437853217124939, "frame": 1441}}, {"type": "Feature", "geometry": {"type": "Point", "coordinates": [126.65704010752665, 37.384252756425155]}, "properties": {"kind": "obstacle", "cls": "bicycle", "n": 2, "score": 0.7355700135231018, "frame": 751}}, {"type": "Feature", "geometry": {"type": "Point", "coordinates": [126.65704949652903, 37.384318073962916]}, "properties": {"kind": "litter", "cls": "rubbish", "n": 4, "score": 0.7223058938980103, "frame": 5101}}, {"type": "Feature", "geometry": {"type": "Point", "coordinates": [126.65704524983754, 37.384308010163934]}, "properties": {"kind": "litter", "cls": "rubbish", "n": 4, "score": 0.7174839377403259, "frame": 4741}}, {"type": "Feature", "geometry": {"type": "Point", "coordinates": [126.65713069600565, 37.38424315181332]}, "properties": {"kind": "litter", "cls": "rubbish", "n": 3, "score": 0.7167447805404663, "frame": 1291}}, {"type": "Feature", "geometry": {"type": "Point", "coordinates": [126.65703075747011, 37.38423573797088]}, "properties": {"kind": "litter", "cls": "rubbish", "n": 3, "score": 0.7149068117141724, "frame": 3811}}, {"type": "Feature", "geometry": {"type": "Point", "coordinates": [126.6569961141244, 37.384257647461126]}, "properties": {"kind": "litter", "cls": "rubbish", "n": 11, "score": 0.712646484375, "frame": 4411}}, {"type": "Feature", "geometry": {"type": "Point", "coordinates": [126.65703607840018, 37.38428067174575]}, "properties": {"kind": "obstacle", "cls": "chair", "n": 4, "score": 0.7054571509361267, "frame": 4231}}, {"type": "Feature", "geometry": {"type": "Point", "coordinates": [126.65710865414674, 37.38429753900896]}, "properties": {"kind": "litter", "cls": "rubbish", "n": 13, "score": 0.7025728821754456, "frame": 4741}}, {"type": "Feature", "geometry": {"type": "Point", "coordinates": [126.65709073122049, 37.38428787851972]}, "properties": {"kind": "obstacle", "cls": "umbrella", "n": 10, "score": 0.6923453211784363, "frame": 5401}}, {"type": "Feature", "geometry": {"type": "Point", "coordinates": [126.65703915997183, 37.384274283181675]}, "properties": {"kind": "obstacle", "cls": "umbrella", "n": 3, "score": 0.6882908344268799, "frame": 4771}}, {"type": "Feature", "geometry": {"type": "Point", "coordinates": [126.65699827181695, 37.38426228444913]}, "properties": {"kind": "obstacle", "cls": "chair", "n": 15, "score": 0.6842761635780334, "frame": 4141}}, {"type": "Feature", "geometry": {"type": "Point", "coordinates": [126.65707522664327, 37.384246684913805]}, "properties": {"kind": "litter", "cls": "rubbish", "n": 13, "score": 0.6832590103149414, "frame": 4831}}, {"type": "Feature", "geometry": {"type": "Point", "coordinates": [126.65708098115594, 37.384250631484505]}, "properties": {"kind": "litter", "cls": "dining table", "n": 3, "score": 0.6799653172492981, "frame": 5251}}, {"type": "Feature", "geometry": {"type": "Point", "coordinates": [126.6570506150136, 37.38426806999812]}, "properties": {"kind": "litter", "cls": "rubbish", "n": 45, "score": 0.6784507632255554, "frame": 1591}}, {"type": "Feature", "geometry": {"type": "Point", "coordinates": [126.65707402067197, 37.38429462075395]}, "properties": {"kind": "litter", "cls": "rubbish", "n": 9, "score": 0.6782844066619873, "frame": 5131}}, {"type": "Feature", "geometry": {"type": "Point", "coordinates": [126.65709414071013, 37.38429953106273]}, "properties": {"kind": "obstacle", "cls": "umbrella", "n": 3, "score": 0.675491452217102, "frame": 5551}}, {"type": "Feature", "geometry": {"type": "Point", "coordinates": [126.65706746199722, 37.38428357764254]}, "properties": {"kind": "litter", "cls": "rubbish", "n": 9, "score": 0.66829913854599, "frame": 811}}, {"type": "Feature", "geometry": {"type": "Point", "coordinates": [126.65703923347738, 37.38429201729051]}, "properties": {"kind": "litter", "cls": "suitcase", "n": 2, "score": 0.6652706265449524, "frame": 5011}}, {"type": "Feature", "geometry": {"type": "Point", "coordinates": [126.65700045101505, 37.384241500502974]}, "properties": {"kind": "litter", "cls": "suitcase", "n": 8, "score": 0.6621842980384827, "frame": 3001}}, {"type": "Feature", "geometry": {"type": "Point", "coordinates": [126.65710116076546, 37.384256167862766]}, "properties": {"kind": "obstacle", "cls": "person", "n": 7, "score": 0.6535395979881287, "frame": 4381}}, {"type": "Feature", "geometry": {"type": "Point", "coordinates": [126.65714178550004, 37.384287994402264]}, "properties": {"kind": "obstacle", "cls": "umbrella", "n": 7, "score": 0.6496015787124634, "frame": 5431}}, {"type": "Feature", "geometry": {"type": "Point", "coordinates": [126.65703954620852, 37.384269683063344]}, "properties": {"kind": "litter", "cls": "cell phone", "n": 2, "score": 0.6466097831726074, "frame": 4921}}, {"type": "Feature", "geometry": {"type": "Point", "coordinates": [126.65712051565144, 37.38431770119616]}, "properties": {"kind": "litter", "cls": "rubbish", "n": 3, "score": 0.6374126672744751, "frame": 5221}}, {"type": "Feature", "geometry": {"type": "Point", "coordinates": [126.65699746372616, 37.38429065209818]}, "properties": {"kind": "litter", "cls": "rubbish", "n": 13, "score": 0.63730788230896, "frame": 931}}, {"type": "Feature", "geometry": {"type": "Point", "coordinates": [126.65705488158135, 37.38423447761813]}, "properties": {"kind": "litter", "cls": "rubbish", "n": 5, "score": 0.6275634765625, "frame": 2491}}, {"type": "Feature", "geometry": {"type": "Point", "coordinates": [126.65702561182346, 37.384256938841624]}, "properties": {"kind": "litter", "cls": "rubbish", "n": 3, "score": 0.6226076483726501, "frame": 3841}}, {"type": "Feature", "geometry": {"type": "Point", "coordinates": [126.65708371121806, 37.38425790164405]}, "properties": {"kind": "litter", "cls": "rubbish", "n": 4, "score": 0.6184530258178711, "frame": 4891}}, {"type": "Feature", "geometry": {"type": "Point", "coordinates": [126.65705611765856, 37.384282591016344]}, "properties": {"kind": "litter", "cls": "cell phone", "n": 2, "score": 0.6134660840034485, "frame": 4861}}, {"type": "Feature", "geometry": {"type": "Point", "coordinates": [126.65705542067522, 37.384245717730145]}, "properties": {"kind": "obstacle", "cls": "dog", "n": 5, "score": 0.6117983460426331, "frame": 2701}}, {"type": "Feature", "geometry": {"type": "Point", "coordinates": [126.6570191830239, 37.3842544833478]}, "properties": {"kind": "obstacle", "cls": "umbrella", "n": 10, "score": 0.6083025932312012, "frame": 3991}}, {"type": "Feature", "geometry": {"type": "Point", "coordinates": [126.65703790872249, 37.384284269805555]}, "properties": {"kind": "litter", "cls": "toilet", "n": 4, "score": 0.605190098285675, "frame": 3901}}, {"type": "Feature", "geometry": {"type": "Point", "coordinates": [126.65710927829846, 37.384275738760934]}, "properties": {"kind": "litter", "cls": "rubbish", "n": 5, "score": 0.6049453616142273, "frame": 4381}}, {"type": "Feature", "geometry": {"type": "Point", "coordinates": [126.65708224652107, 37.384241407229375]}, "properties": {"kind": "obstacle", "cls": "chair", "n": 2, "score": 0.5984231233596802, "frame": 4861}}, {"type": "Feature", "geometry": {"type": "Point", "coordinates": [126.65703548028556, 37.38427979799389]}, "properties": {"kind": "litter", "cls": "suitcase", "n": 3, "score": 0.5909131765365601, "frame": 4291}}, {"type": "Feature", "geometry": {"type": "Point", "coordinates": [126.6569970586396, 37.38429212677019]}, "properties": {"kind": "obstacle", "cls": "bicycle", "n": 31, "score": 0.5853884220123291, "frame": 1201}}, {"type": "Feature", "geometry": {"type": "Point", "coordinates": [126.65715278296071, 37.3843011229295]}, "properties": {"kind": "litter", "cls": "rubbish", "n": 9, "score": 0.5843918919563293, "frame": 5521}}, {"type": "Feature", "geometry": {"type": "Point", "coordinates": [126.65702898862516, 37.38426944744404]}, "properties": {"kind": "litter", "cls": "rubbish", "n": 6, "score": 0.5722061395645142, "frame": 5011}}, {"type": "Feature", "geometry": {"type": "Point", "coordinates": [126.65710205858093, 37.38425509600855]}, "properties": {"kind": "litter", "cls": "rubbish", "n": 9, "score": 0.5491301417350769, "frame": 4831}}, {"type": "Feature", "geometry": {"type": "Point", "coordinates": [126.65709573134781, 37.384295060448274]}, "properties": {"kind": "litter", "cls": "handbag", "n": 3, "score": 0.5323814749717712, "frame": 5341}}, {"type": "Feature", "geometry": {"type": "Point", "coordinates": [126.6571293487031, 37.38426211425629]}, "properties": {"kind": "litter", "cls": "cell phone", "n": 2, "score": 0.5116041302680969, "frame": 5341}}, {"type": "Feature", "geometry": {"type": "Point", "coordinates": [126.65710053169319, 37.384260700346715]}, "properties": {"kind": "litter", "cls": "rubbish", "n": 2, "score": 0.5083001255989075, "frame": 4561}}, {"type": "Feature", "geometry": {"type": "Point", "coordinates": [126.65710941986477, 37.38429826778328]}, "properties": {"kind": "obstacle", "cls": "bench", "n": 3, "score": 0.49245011806488037, "frame": 5491}}, {"type": "Feature", "geometry": {"type": "Point", "coordinates": [126.65707072646882, 37.38426080985491]}, "properties": {"kind": "litter", "cls": "kite", "n": 2, "score": 0.48782968521118164, "frame": 5161}}, {"type": "Feature", "geometry": {"type": "Point", "coordinates": [126.65707188475818, 37.38425614230926]}, "properties": {"kind": "obstacle", "cls": "chair", "n": 2, "score": 0.4870632290840149, "frame": 5281}}, {"type": "Feature", "geometry": {"type": "Point", "coordinates": [126.65706408752388, 37.384256789353394]}, "properties": {"kind": "obstacle", "cls": "umbrella", "n": 2, "score": 0.4694126546382904, "frame": 5161}}, {"type": "Feature", "geometry": {"type": "Point", "coordinates": [126.65700482765496, 37.38430193244618]}, "properties": {"kind": "obstacle", "cls": "bicycle", "n": 3, "score": 0.4605042338371277, "frame": 1201}}, {"type": "Feature", "geometry": {"type": "Point", "coordinates": [126.65711892868858, 37.384252605393414]}, "properties": {"kind": "litter", "cls": "train", "n": 2, "score": 0.4564726948738098, "frame": 1441}}, {"type": "Feature", "geometry": {"type": "Point", "coordinates": [126.65701628314338, 37.38428599553033]}, "properties": {"kind": "litter", "cls": "rubbish", "n": 4, "score": 0.45445990562438965, "frame": 781}}, {"type": "Feature", "geometry": {"type": "Point", "coordinates": [126.65697425705399, 37.3842737141825]}, "properties": {"kind": "litter", "cls": "kite", "n": 2, "score": 0.4419275224208832, "frame": 5011}}, {"type": "Feature", "geometry": {"type": "Point", "coordinates": [126.65702647418149, 37.384283548626506]}, "properties": {"kind": "obstacle", "cls": "car", "n": 2, "score": 0.4387321174144745, "frame": 5281}}, {"type": "Feature", "geometry": {"type": "Point", "coordinates": [126.65702924473976, 37.38428283872289]}, "properties": {"kind": "obstacle", "cls": "person", "n": 3, "score": 0.4380527138710022, "frame": 4531}}, {"type": "Feature", "geometry": {"type": "Point", "coordinates": [126.65709821485139, 37.38431335463159]}, "properties": {"kind": "litter", "cls": "rubbish", "n": 2, "score": 0.43231332302093506, "frame": 4771}}, {"type": "Feature", "geometry": {"type": "Point", "coordinates": [126.65714674270362, 37.38429414645262]}, "properties": {"kind": "litter", "cls": "rubbish", "n": 3, "score": 0.4156755208969116, "frame": 5401}}, {"type": "Feature", "geometry": {"type": "Point", "coordinates": [126.65704275583174, 37.38424762863038]}, "properties": {"kind": "litter", "cls": "suitcase", "n": 2, "score": 0.40897735953330994, "frame": 4921}}, {"type": "Feature", "geometry": {"type": "Point", "coordinates": [126.65698631746315, 37.384274814675486]}, "properties": {"kind": "litter", "cls": "airplane", "n": 2, "score": 0.3965698778629303, "frame": 5041}}, {"type": "Feature", "geometry": {"type": "Point", "coordinates": [126.65710131702056, 37.384298682501736]}, "properties": {"kind": "litter", "cls": "dining table", "n": 3, "score": 0.3941720128059387, "frame": 5551}}]}