{"type": "FeatureCollection", "features": [{"type": "Feature", "geometry": {"type": "Point", "coordinates": [-156.6619371927324, 21.004033727631693]}, "properties": {"stop_id": "S001", "x": 743036.0276930155, "y": 2324372.1390446126, "n_items": 2, "kg_est": 0.7067542020868032, "kg_hi": 1.4540848107222357, "bulk_m3": 0.004927404010674092, "crew": "1인", "tools": [], "max_item_kg_hi": 0.9017625295671082, "r95_m": 3.0, "buried_suspect": false, "classes": ["eps_fragment", "pet_bottle"], "visit_order": 1}}, {"type": "Feature", "geometry": {"type": "Point", "coordinates": [-156.75351302479223, 21.10045723616762]}, "properties": {"stop_id": "S123", "x": 733362.747368121, "y": 2334913.1557665677, "n_items": 4, "kg_est": 9.392401837317038, "kg_hi": 17.656005468353584, "bulk_m3": 0.09670588279979736, "crew": "1인", "tools": ["절단기"], "max_item_kg_hi": 9.490970264735196, "r95_m": 3.0, "buried_suspect": false, "classes": ["net", "pet_bottle", "plastic_buoy", "plastic_other"], "visit_order": 2}}, {"type": "Feature", "geometry": {"type": "Point", "coordinates": [-156.73932318036034, 21.114293586427188]}, "properties": {"stop_id": "S116", "x": 734815.5601037656, "y": 2336466.2620633347, "n_items": 1, "kg_est": 0.6901651966296957, "kg_hi": 1.1502753277161595, "bulk_m3": 0.005228524216891634, "crew": "1인", "tools": [], "max_item_kg_hi": 1.1502753277161595, "r95_m": 3.0, "buried_suspect": false, "classes": ["pet_bottle"], "visit_order": 3}}, {"type": "Feature", "geometry": {"type": "Point", "coordinates": [-156.73346143333183, 21.119152398978546]}, "properties": {"stop_id": "S113", "x": 735416.9815177452, "y": 2337012.9943683427, "n_items": 3, "kg_est": 7.811324001775342, "kg_hi": 11.958829921714077, "bulk_m3": 0.12054041303367057, "crew": "1인", "tools": [], "max_item_kg_hi": 4.894174125803985, "r95_m": 3.0, "buried_suspect": false, "classes": ["plastic_buoy", "plastic_other"], "visit_order": 4}}, {"type": "Feature", "geometry": {"type": "Point", "coordinates": [-156.731645873769, 21.121624599032195]}, "properties": {"stop_id": "S112", "x": 735601.7228813928, "y": 2337289.4546595016, "n_items": 1, "kg_est": 3.2643743778713703, "kg_hi": 4.352499170495161, "bulk_m3": 0.054406239631189506, "crew": "1인", "tools": [], "max_item_kg_hi": 4.352499170495161, "r95_m": 3.0, "buried_suspect": false, "classes": ["plastic_buoy"], "visit_order": 5}}, {"type": "Feature", "geometry": {"type": "Point", "coordinates": [-156.73116297714344, 21.123629991446904]}, "properties": {"stop_id": "S111", "x": 735648.7276026292, "y": 2337512.246155208, "n_items": 2, "kg_est": 4.948347273058305, "kg_hi": 6.825113337871376, "bulk_m3": 0.08114643887050886, "crew": "1인", "tools": [], "max_item_kg_hi": 6.446251714881982, "r95_m": 3.0, "buried_suspect": false, "classes": ["eps_fragment", "plastic_buoy"], "visit_order": 6}}, {"type": "Feature", "geometry": {"type": "Point", "coordinates": [-156.7270358293332, 21.126673157449478]}, "properties": {"stop_id": "S110", "x": 736072.7331413837, "y": 2337855.3726717154, "n_items": 3, "kg_est": 7.320478890658051, "kg_hi": 9.970998131778332, "bulk_m3": 0.12078088378071208, "crew": "1인", "tools": [], "max_item_kg_hi": 5.181762203837728, "r95_m": 3.0, "buried_suspect": false, "classes": ["eps_fragment", "plastic_buoy"], "visit_order": 7}}, {"type": "Feature", "geometry": {"type": "Point", "coordinates": [-156.72689255882335, 21.1268460792172]}, "properties": {"stop_id": "S109", "x": 736087.3452336473, "y": 2337874.734880845, "n_items": 1, "kg_est": 0.4766513097954981, "kg_hi": 1.5888376993183273, "bulk_m3": 0.001986047124147909, "crew": "1인", "tools": [], "max_item_kg_hi": 1.5888376993183273, "r95_m": 3.0, "buried_suspect": false, "classes": ["plastic_other"], "visit_order": 8}}, {"type": "Feature", "geometry": {"type": "Point", "coordinates": [-156.72293454713494, 21.130213853066014]}, "properties": {"stop_id": "S108", "x": 736493.244191577, "y": 2338253.5695920847, "n_items": 7, "kg_est": 24.762308066874933, "kg_hi": 58.0890388275559, "bulk_m3": 0.14333132528044565, "crew": "1인", "tools": ["절단기"], "max_item_kg_hi": 12.228217903378663, "r95_m": 3.0, "buried_suspect": false, "classes": ["net", "plastic_buoy", "plastic_other"], "visit_order": 9}}, {"type": "Feature", "geometry": {"type": "Point", "coordinates": [-156.72169305587374, 21.132924138068915]}, "properties": {"stop_id": "S106", "x": 736617.9297438108, "y": 2338555.555165334, "n_items": 1, "kg_est": 0.9021985947136352, "kg_hi": 2.2554964867840877, "bulk_m3": 0.0024058629192363606, "crew": "1인", "tools": ["절단기"], "max_item_kg_hi": 2.2554964867840877, "r95_m": 3.0, "buried_suspect": false, "classes": ["net"], "visit_order": 10}}, {"type": "Feature", "geometry": {"type": "Point", "coordinates": [-156.72170756673103, 21.13309312452028]}, "properties": {"stop_id": "S105", "x": 736616.1536737456, "y": 2338574.2470477554, "n_items": 14, "kg_est": 51.36557850728792, "kg_hi": 66.65175543785864, "bulk_m3": 0.5577309391642301, "crew": "1인", "tools": [], "max_item_kg_hi": 16.97225647765451, "r95_m": 3.0, "buried_suspect": false, "classes": ["eps_buoy", "eps_fragment", "plastic_buoy", "plastic_other"], "visit_order": 11}}, {"type": "Feature", "geometry": {"type": "Point", "coordinates": [-156.72128119498305, 21.133656092308094]}, "properties": {"stop_id": "S107", "x": 736659.5582553083, "y": 2338637.2254235805, "n_items": 2, "kg_est": 0.558850727934635, "kg_hi": 1.8628357597821168, "bulk_m3": 0.0027942536396731747, "crew": "1인", "tools": [], "max_item_kg_hi": 0.9957992793296166, "r95_m": 3.0, "buried_suspect": false, "classes": ["eps_fragment"], "visit_order": 12}}, {"type": "Feature", "geometry": {"type": "Point", "coordinates": [-156.72101053355186, 21.1338688714686]}, "properties": {"stop_id": "S099", "x": 736687.34112894, "y": 2338661.192004893, "n_items": 2, "kg_est": 8.9422895094703, "kg_hi": 12.279527364352415, "bulk_m3": 0.14695872282832934, "crew": "1인", "tools": [], "max_item_kg_hi": 11.685402889254611, "r95_m": 3.0, "buried_suspect": false, "classes": ["eps_fragment", "plastic_buoy"], "visit_order": 13}}, {"type": "Feature", "geometry": {"type": "Point", "coordinates": [-156.7202998656475, 21.134541527742297]}, "properties": {"stop_id": "S100", "x": 736760.1082777459, "y": 2338736.7414435185, "n_items": 1, "kg_est": 0.3875604131588707, "kg_hi": 0.6459340219314511, "bulk_m3": 0.0029360637360520505, "crew": "1인", "tools": [], "max_item_kg_hi": 0.6459340219314511, "r95_m": 3.0, "buried_suspect": false, "classes": ["pet_bottle"], "visit_order": 14}}, {"type": "Feature", "geometry": {"type": "Point", "coordinates": [-156.71970074757513, 21.135051720872518]}, "properties": {"stop_id": "S101", "x": 736821.5434612897, "y": 2338794.1337258965, "n_items": 2, "kg_est": 0.4736588013617381, "kg_hi": 1.5788626712057936, "bulk_m3": 0.0023682940068086907, "crew": "1인", "tools": [], "max_item_kg_hi": 1.153863501051355, "r95_m": 3.0, "buried_suspect": false, "classes": ["eps_fragment"], "visit_order": 15}}, {"type": "Feature", "geometry": {"type": "Point", "coordinates": [-156.71949298171992, 21.135679731146922]}, "properties": {"stop_id": "S104", "x": 736842.130941532, "y": 2338863.989428823, "n_items": 4, "kg_est": 16.422721511409637, "kg_hi": 38.33598960805408, "bulk_m3": 0.10693680247843984, "crew": "1인", "tools": ["절단기"], "max_item_kg_hi": 13.647919127944522, "r95_m": 3.0, "buried_suspect": false, "classes": ["net", "plastic_buoy", "plastic_other"], "visit_order": 16}}, {"type": "Feature", "geometry": {"type": "Point", "coordinates": [-156.71950498570956, 21.135985140164525]}, "properties": {"stop_id": "S102", "x": 736840.3981214036, "y": 2338897.79246831, "n_items": 6, "kg_est": 17.35736151932703, "kg_hi": 29.793282264417954, "bulk_m3": 0.11824473014391469, "crew": "1인", "tools": ["절단기"], "max_item_kg_hi": 10.771880589458041, "r95_m": 3.0, "buried_suspect": false, "classes": ["eps_buoy", "net", "pet_bottle", "plastic_buoy"], "visit_order": 17}}, {"type": "Feature", "geometry": {"type": "Point", "coordinates": [-156.71946545524588, 21.136137231878454]}, "properties": {"stop_id": "S103", "x": 736844.2633071337, "y": 2338914.694058193, "n_items": 2, "kg_est": 6.285862921135199, "kg_hi": 15.866286517683632, "bulk_m3": 0.017186862924594978, "crew": "1인", "tools": ["절단기"], "max_item_kg_hi": 15.25976965830109, "r95_m": 3.0, "buried_suspect": false, "classes": ["eps_fragment", "net"], "visit_order": 18}}, {"type": "Feature", "geometry": {"type": "Point", "coordinates": [-156.71892520746528, 21.13675691015607]}, "properties": {"stop_id": "S090", "x": 736899.4069976186, "y": 2338984.1232746216, "n_items": 5, "kg_est": 27.779980914185124, "kg_hi": 38.88553480485981, "bulk_m3": 0.33267033813334906, "crew": "1인", "tools": ["절단기"], "max_item_kg_hi": 11.288621294439718, "r95_m": 3.0, "buried_suspect": false, "classes": ["eps_buoy", "net", "plastic_buoy"], "visit_order": 19}}, {"type": "Feature", "geometry": {"type": "Point", "coordinates": [-156.71837492051088, 21.138435984707332]}, "properties": {"stop_id": "S091", "x": 736953.9076041516, "y": 2339170.8851853576, "n_items": 11, "kg_est": 46.901600371495846, "kg_hi": 84.42241029618543, "bulk_m3": 0.3266717143445245, "crew": "1인", "tools": ["절단기"], "max_item_kg_hi": 17.253339969937322, "r95_m": 3.0, "buried_suspect": false, "classes": ["eps_buoy", "eps_fragment", "net", "pet_bottle", "plastic_buoy", "plastic_other"], "visit_order": 20}}, {"type": "Feature", "geometry": {"type": "Point", "coordinates": [-156.71404161810244, 21.145209257536358]}, "properties": {"stop_id": "S087", "x": 737393.3129014599, "y": 2339927.4338146164, "n_items": 21, "kg_est": 31.010025307255237, "kg_hi": 59.8692253814487, "bulk_m3": 0.3399631737109574, "crew": "1인", "tools": ["절단기"], "max_item_kg_hi": 10.819593214185968, "r95_m": 3.0, "buried_suspect": false, "classes": ["eps_fragment", "net", "pet_bottle", "plastic_buoy", "plastic_other"], "visit_order": 21}}, {"type": "Feature", "geometry": {"type": "Point", "coordinates": [-156.71392126259911, 21.145866631506728]}, "properties": {"stop_id": "S088", "x": 737404.7682134705, "y": 2340000.4116469505, "n_items": 6, "kg_est": 12.445417140409065, "kg_hi": 23.7886670304173, "bulk_m3": 0.0684997636729417, "crew": "1인", "tools": ["절단기"], "max_item_kg_hi": 7.095705461741756, "r95_m": 3.0, "buried_suspect": false, "classes": ["eps_buoy", "eps_fragment", "net", "plastic_other"], "visit_order": 22}}, {"type": "Feature", "geometry": {"type": "Point", "coordinates": [-156.71348025389008, 21.14655751226943]}, "properties": {"stop_id": "S089", "x": 737449.4821591825, "y": 2340077.5798676605, "n_items": 12, "kg_est": 47.51829053477109, "kg_hi": 59.796103047032666, "bulk_m3": 0.4893140705071851, "crew": "1인", "tools": [], "max_item_kg_hi": 12.110872014167077, "r95_m": 3.0, "buried_suspect": false, "classes": ["eps_buoy", "eps_fragment", "plastic_buoy", "plastic_other"], "visit_order": 23}}, {"type": "Feature", "geometry": {"type": "Point", "coordinates": [-156.7117016183443, 21.14920157403288]}, "properties": {"stop_id": "S086", "x": 737630.0409975022, "y": 2340373.0471013277, "n_items": 5, "kg_est": 21.549205419086803, "kg_hi": 39.10516751547533, "bulk_m3": 0.1361068528891544, "crew": "1인", "tools": ["절단기"], "max_item_kg_hi": 10.760656823876191, "r95_m": 3.0, "buried_suspect": false, "classes": ["eps_buoy", "net", "plastic_buoy"], "visit_order": 24}}, {"type": "Feature", "geometry": {"type": "Point", "coordinates": [-156.71156790705072, 21.150285355975146]}, "properties": {"stop_id": "S085", "x": 737642.2013409024, "y": 2340493.2658839272, "n_items": 4, "kg_est": 8.181310252129084, "kg_hi": 16.783918703749475, "bulk_m3": 0.07630840094387639, "crew": "1인", "tools": ["절단기"], "max_item_kg_hi": 8.735232294762815, "r95_m": 3.0, "buried_suspect": false, "classes": ["eps_fragment", "net", "plastic_buoy", "plastic_other"], "visit_order": 25}}, {"type": "Feature", "geometry": {"type": "Point", "coordinates": [-156.73608147511487, 21.16141778901743]}, "properties": {"stop_id": "S084", "x": 735078.0085739773, "y": 2341689.539143499, "n_items": 2, "kg_est": 5.522898138662488, "kg_hi": 7.434726280891649, "bulk_m3": 0.09011569969263249, "crew": "1인", "tools": [], "max_item_kg_hi": 7.080415800850001, "r95_m": 3.0, "buried_suspect": false, "classes": ["pet_bottle", "plastic_buoy"], "visit_order": 26}}, {"type": "Feature", "geometry": {"type": "Point", "coordinates": [-156.73612817199864, 21.162113140360983]}, "properties": {"stop_id": "S083", "x": 735072.0588998694, "y": 2341766.472557825, "n_items": 5, "kg_est": 6.315566812814169, "kg_hi": 14.323825733374107, "bulk_m3": 0.02547223115113354, "crew": "1인", "tools": ["절단기"], "max_item_kg_hi": 11.393643136051473, "r95_m": 3.0, "buried_suspect": false, "classes": ["net", "pet_bottle"], "visit_order": 27}}, {"type": "Feature", "geometry": {"type": "Point", "coordinates": [-156.7361891265176, 21.163680278254095]}, "properties": {"stop_id": "S082", "x": 735063.2503747906, "y": 2341939.9257791056, "n_items": 3, "kg_est": 9.14351878168382, "kg_hi": 16.82287999907561, "bulk_m3": 0.09495598977479856, "crew": "1인", "tools": ["절단기"], "max_item_kg_hi": 9.66403823890186, "r95_m": 3.0, "buried_suspect": false, "classes": ["net", "pet_bottle", "plastic_buoy"], "visit_order": 28}}, {"type": "Feature", "geometry": {"type": "Point", "coordinates": [-156.7361625832116, 21.163920511757535]}, "properties": {"stop_id": "S078", "x": 735065.6278742069, "y": 2341966.56839809, "n_items": 11, "kg_est": 21.749839741058988, "kg_hi": 44.977637324476376, "bulk_m3": 0.1625913449403063, "crew": "1인", "tools": ["절단기"], "max_item_kg_hi": 11.372618916187996, "r95_m": 3.0, "buried_suspect": false, "classes": ["net", "pet_bottle", "plastic_buoy", "plastic_other"], "visit_order": 29}}, {"type": "Feature", "geometry": {"type": "Point", "coordinates": [-156.73599268092138, 21.166758312710762]}, "properties": {"stop_id": "S077", "x": 735078.79063427, "y": 2342281.076195366, "n_items": 3, "kg_est": 5.845738764006715, "kg_hi": 11.504544757573422, "bulk_m3": 0.057042212136193135, "crew": "1인", "tools": ["절단기"], "max_item_kg_hi": 6.409137476698458, "r95_m": 3.0, "buried_suspect": false, "classes": ["net", "plastic_buoy", "plastic_other"], "visit_order": 30}}, {"type": "Feature", "geometry": {"type": "Point", "coordinates": [-156.766513923446, 21.175553606141712]}, "properties": {"stop_id": "S070", "x": 731894.7546329026, "y": 2343210.093029078, "n_items": 25, "kg_est": 103.29488456722908, "kg_hi": 158.36687130330708, "bulk_m3": 0.8474998187667389, "crew": "2인", "tools": ["절단기"], "max_item_kg_hi": 40.26937232920038, "r95_m": 3.0, "buried_suspect": false, "classes": ["eps_buoy", "eps_fragment", "net", "pet_bottle", "plastic_buoy", "plastic_other"], "visit_order": 31}}, {"type": "Feature", "geometry": {"type": "Point", "coordinates": [-156.77108322813035, 21.175348520029065]}, "properties": {"stop_id": "S069", "x": 731420.4813130897, "y": 2343180.7028943673, "n_items": 4, "kg_est": 1.737131602422131, "kg_hi": 5.32060516633677, "bulk_m3": 0.008397362447846158, "crew": "1인", "tools": [], "max_item_kg_hi": 4.0576075817351995, "r95_m": 3.0, "buried_suspect": false, "classes": ["eps_fragment", "pet_bottle", "plastic_other"], "visit_order": 32}}, {"type": "Feature", "geometry": {"type": "Point", "coordinates": [-156.7798431500859, 21.172948603999398]}, "properties": {"stop_id": "S072", "x": 730514.351926518, "y": 2342902.176850509, "n_items": 12, "kg_est": 12.255691573785628, "kg_hi": 18.48846250162513, "bulk_m3": 0.17655219827605967, "crew": "1인", "tools": [], "max_item_kg_hi": 7.805177252699885, "r95_m": 3.0, "buried_suspect": false, "classes": ["eps_fragment", "pet_bottle", "plastic_buoy"], "visit_order": 33}}, {"type": "Feature", "geometry": {"type": "Point", "coordinates": [-156.7827477052884, 21.17386948609659]}, "properties": {"stop_id": "S071", "x": 730211.2396800104, "y": 2342999.93064084, "n_items": 2, "kg_est": 1.4164429693547431, "kg_hi": 4.075190443451225, "bulk_m3": 0.007223794589640505, "crew": "1인", "tools": [], "max_item_kg_hi": 3.4289043223866402, "r95_m": 3.0, "buried_suspect": false, "classes": ["pet_bottle", "plastic_other"], "visit_order": 34}}, {"type": "Feature", "geometry": {"type": "Point", "coordinates": [-156.7991304821187, 21.172019946399402]}, "properties": {"stop_id": "S075", "x": 728512.478735369, "y": 2342771.411655441, "n_items": 24, "kg_est": 11.23836919883574, "kg_hi": 20.854227942781495, "bulk_m3": 0.13856733554071987, "crew": "1인", "tools": [], "max_item_kg_hi": 5.1014866355908675, "r95_m": 3.0, "buried_suspect": false, "classes": ["eps_fragment", "pet_bottle", "plastic_buoy", "plastic_other"], "visit_order": 35}}, {"type": "Feature", "geometry": {"type": "Point", "coordinates": [-156.80828018059438, 21.17267874131965]}, "properties": {"stop_id": "S074", "x": 727561.1273371363, "y": 2342831.199871178, "n_items": 4, "kg_est": 2.1898513672900943, "kg_hi": 3.6497522788168246, "bulk_m3": 0.01658978308553102, "crew": "1인", "tools": [], "max_item_kg_hi": 1.2893474943833276, "r95_m": 3.0, "buried_suspect": false, "classes": ["pet_bottle"], "visit_order": 36}}, {"type": "Feature", "geometry": {"type": "Point", "coordinates": [-156.92633910861474, 21.169258172802426]}, "properties": {"stop_id": "S076", "x": 715304.2017029601, "y": 2342287.5177230975, "n_items": 5, "kg_est": 9.86236226424477, "kg_hi": 21.4186567766583, "bulk_m3": 0.10286916567528522, "crew": "1인", "tools": [], "max_item_kg_hi": 9.667527353587168, "r95_m": 3.0, "buried_suspect": false, "classes": ["pet_bottle", "plastic_buoy", "plastic_other"], "visit_order": 37}}, {"type": "Feature", "geometry": {"type": "Point", "coordinates": [-156.9436958922559, 21.17282800142481]}, "properties": {"stop_id": "S073", "x": 713496.3763530185, "y": 2342659.325018718, "n_items": 2, "kg_est": 1.7634636556090548, "kg_hi": 4.631731538858742, "bulk_m3": 0.009897384735918703, "crew": "1인", "tools": [], "max_item_kg_hi": 3.385250892353968, "r95_m": 3.0, "buried_suspect": false, "classes": ["pet_bottle", "plastic_other"], "visit_order": 38}}, {"type": "Feature", "geometry": {"type": "Point", "coordinates": [-156.94897912937276, 21.18539524244326]}, "properties": {"stop_id": "S066", "x": 712929.6635499937, "y": 2344043.761968678, "n_items": 3, "kg_est": 1.531285040487664, "kg_hi": 5.104283468292214, "bulk_m3": 0.006876470356651031, "crew": "1인", "tools": [], "max_item_kg_hi": 3.119819383149159, "r95_m": 3.0, "buried_suspect": false, "classes": ["eps_fragment", "plastic_other"], "visit_order": 39}}, {"type": "Feature", "geometry": {"type": "Point", "coordinates": [-156.94913063159427, 21.18800712257478]}, "properties": {"stop_id": "S065", "x": 712910.187198894, "y": 2344332.7664273125, "n_items": 22, "kg_est": 37.134834697025056, "kg_hi": 60.83740680583091, "bulk_m3": 0.4840735869490223, "crew": "1인", "tools": [], "max_item_kg_hi": 7.237055878115952, "r95_m": 3.0, "buried_suspect": false, "classes": ["eps_buoy", "eps_fragment", "pet_bottle", "plastic_buoy", "plastic_other"], "visit_order": 40}}, {"type": "Feature", "geometry": {"type": "Point", "coordinates": [-156.95011046442653, 21.189724850295075]}, "properties": {"stop_id": "S064", "x": 712805.9733090567, "y": 2344521.6501615974, "n_items": 11, "kg_est": 23.724412337895686, "kg_hi": 34.762944690246286, "bulk_m3": 0.2500060945750999, "crew": "1인", "tools": [], "max_item_kg_hi": 10.63040235243108, "r95_m": 3.0, "buried_suspect": false, "classes": ["eps_buoy", "eps_fragment", "pet_bottle", "plastic_buoy", "plastic_other"], "visit_order": 41}}, {"type": "Feature", "geometry": {"type": "Point", "coordinates": [-156.9953182744818, 21.179692801204062]}, "properties": {"stop_id": "S068", "x": 708125.4075282471, "y": 2343350.779272253, "n_items": 6, "kg_est": 16.39058498570462, "kg_hi": 43.45437056053056, "bulk_m3": 0.04816846120182988, "crew": "1인", "tools": ["절단기"], "max_item_kg_hi": 10.543693852702912, "r95_m": 3.0, "buried_suspect": false, "classes": ["net", "plastic_other"], "visit_order": 42}}, {"type": "Feature", "geometry": {"type": "Point", "coordinates": [-157.0188261212164, 21.183586551886012]}, "properties": {"stop_id": "S067", "x": 705678.7136721166, "y": 2343751.219941455, "n_items": 15, "kg_est": 11.406630477739393, "kg_hi": 17.67335725461939, "bulk_m3": 0.12490703372733883, "crew": "1인", "tools": [], "max_item_kg_hi": 5.880073109437496, "r95_m": 3.0, "buried_suspect": false, "classes": ["eps_buoy", "eps_fragment", "pet_bottle", "plastic_buoy"], "visit_order": 43}}, {"type": "Feature", "geometry": {"type": "Point", "coordinates": [-157.0793879716995, 21.18983774334062]}, "properties": {"stop_id": "S063", "x": 699381.2208627766, "y": 2344365.9490495245, "n_items": 6, "kg_est": 18.457946615769494, "kg_hi": 46.523548200824024, "bulk_m3": 0.049902817965905844, "crew": "1인", "tools": ["절단기"], "max_item_kg_hi": 10.434689786600677, "r95_m": 3.0, "buried_suspect": false, "classes": ["net", "plastic_other"], "visit_order": 44}}, {"type": "Feature", "geometry": {"type": "Point", "coordinates": [-157.08226854097398, 21.190745606172346]}, "properties": {"stop_id": "S062", "x": 699080.8855017081, "y": 2344462.845917159, "n_items": 4, "kg_est": 9.90993825993039, "kg_hi": 20.8589476711176, "bulk_m3": 0.09070465098455716, "crew": "1인", "tools": ["절단기"], "max_item_kg_hi": 9.941136361199108, "r95_m": 3.0, "buried_suspect": false, "classes": ["net", "plastic_buoy", "plastic_other"], "visit_order": 45}}, {"type": "Feature", "geometry": {"type": "Point", "coordinates": [-157.11789777826485, 21.196535470177825]}, "properties": {"stop_id": "S060", "x": 695373.5778066196, "y": 2345059.5352978962, "n_items": 15, "kg_est": 69.35518755944433, "kg_hi": 106.32392715947427, "bulk_m3": 0.5604226599582253, "crew": "2인", "tools": ["절단기"], "max_item_kg_hi": 27.511841521657388, "r95_m": 3.0, "buried_suspect": false, "classes": ["eps_buoy", "net", "plastic_buoy", "plastic_other", "rope"], "visit_order": 46}}, {"type": "Feature", "geometry": {"type": "Point", "coordinates": [-157.11797193434433, 21.19654984770062]}, "properties": {"stop_id": "S061", "x": 695365.8589858538, "y": 2345061.035687813, "n_items": 1, "kg_est": 0.22931016486866507, "kg_hi": 0.7643672162288837, "bulk_m3": 0.0011465508243433255, "crew": "1인", "tools": [], "max_item_kg_hi": 0.7643672162288837, "r95_m": 3.0, "buried_suspect": false, "classes": ["eps_fragment"], "visit_order": 47}}, {"type": "Feature", "geometry": {"type": "Point", "coordinates": [-157.12285164773147, 21.196706426884276]}, "properties": {"stop_id": "S059", "x": 694858.9749144914, "y": 2345072.360021013, "n_items": 7, "kg_est": 31.504245051716094, "kg_hi": 54.29934908066892, "bulk_m3": 0.2820018090890069, "crew": "1인", "tools": [], "max_item_kg_hi": 22.918446470671626, "r95_m": 3.0, "buried_suspect": false, "classes": ["eps_buoy", "eps_fragment", "pet_bottle", "plastic_buoy", "plastic_other"], "visit_order": 48}}, {"type": "Feature", "geometry": {"type": "Point", "coordinates": [-157.13051327814838, 21.198518359351176]}, "properties": {"stop_id": "S057", "x": 694061.0748104695, "y": 2345263.567616241, "n_items": 2, "kg_est": 1.439274904069103, "kg_hi": 2.7612264336851764, "bulk_m3": 0.010343471052885016, "crew": "1인", "tools": [], "max_item_kg_hi": 2.036356579878501, "r95_m": 3.0, "buried_suspect": false, "classes": ["eps_fragment", "pet_bottle"], "visit_order": 49}}, {"type": "Feature", "geometry": {"type": "Point", "coordinates": [-157.13209349457196, 21.197926097177742]}, "properties": {"stop_id": "S058", "x": 693897.7713497498, "y": 2345196.057153323, "n_items": 5, "kg_est": 13.766188946799405, "kg_hi": 45.23005038721382, "bulk_m3": 0.05870348763872279, "crew": "2인", "tools": [], "max_item_kg_hi": 29.088883080489715, "r95_m": 3.0, "buried_suspect": false, "classes": ["pet_bottle", "plastic_other"], "visit_order": 50}}, {"type": "Feature", "geometry": {"type": "Point", "coordinates": [-157.13876150562209, 21.1991902316152]}, "properties": {"stop_id": "S056", "x": 693203.7733412493, "y": 2345327.870552596, "n_items": 1, "kg_est": 0.37765094098064744, "kg_hi": 0.6294182349677457, "bulk_m3": 0.002860991977126117, "crew": "1인", "tools": [], "max_item_kg_hi": 0.6294182349677457, "r95_m": 3.0, "buried_suspect": false, "classes": ["pet_bottle"], "visit_order": 51}}, {"type": "Feature", "geometry": {"type": "Point", "coordinates": [-157.14140039364597, 21.198902439590544]}, "properties": {"stop_id": "S055", "x": 692930.1489299077, "y": 2345292.7891266006, "n_items": 3, "kg_est": 7.487916041392123, "kg_hi": 24.959720137973743, "bulk_m3": 0.03119965017246718, "crew": "1인", "tools": [], "max_item_kg_hi": 9.50921436291685, "r95_m": 3.0, "buried_suspect": false, "classes": ["plastic_other"], "visit_order": 52}}, {"type": "Feature", "geometry": {"type": "Point", "coordinates": [-157.1415927722399, 21.19882323762778]}, "properties": {"stop_id": "S054", "x": 692910.276934398, "y": 2345283.7856160626, "n_items": 4, "kg_est": 3.7940836385159384, "kg_hi": 7.884794856056742, "bulk_m3": 0.025549444429642347, "crew": "1인", "tools": [], "max_item_kg_hi": 3.1226442503936895, "r95_m": 3.0, "buried_suspect": false, "classes": ["pet_bottle", "plastic_other"], "visit_order": 53}}, {"type": "Feature", "geometry": {"type": "Point", "coordinates": [-157.14180774878577, 21.19894222713056]}, "properties": {"stop_id": "S053", "x": 692887.801113728, "y": 2345296.698090543, "n_items": 5, "kg_est": 10.881777424568106, "kg_hi": 20.944986824132553, "bulk_m3": 0.10870970008073519, "crew": "1인", "tools": ["절단기"], "max_item_kg_hi": 9.821333878780361, "r95_m": 3.0, "buried_suspect": false, "classes": ["net", "pet_bottle", "plastic_buoy", "plastic_other"], "visit_order": 54}}, {"type": "Feature", "geometry": {"type": "Point", "coordinates": [-157.16430968047032, 21.20056329970455]}, "properties": {"stop_id": "S052", "x": 690549.3322783317, "y": 2345448.935671101, "n_items": 1, "kg_est": 5.398026641698032, "kg_hi": 7.197368855597377, "bulk_m3": 0.0899671106949672, "crew": "1인", "tools": [], "max_item_kg_hi": 7.197368855597377, "r95_m": 3.0, "buried_suspect": false, "classes": ["plastic_buoy"], "visit_order": 55}}, {"type": "Feature", "geometry": {"type": "Point", "coordinates": [-157.16727430709523, 21.200727332311743]}, "properties": {"stop_id": "S051", "x": 690241.3082145385, "y": 2345463.5321567087, "n_items": 1, "kg_est": 1.800006666473374, "kg_hi": 2.4000088886311657, "bulk_m3": 0.030000111107889568, "crew": "1인", "tools": [], "max_item_kg_hi": 2.4000088886311657, "r95_m": 3.0, "buried_suspect": false, "classes": ["plastic_buoy"], "visit_order": 56}}, {"type": "Feature", "geometry": {"type": "Point", "coordinates": [-157.16747149295077, 21.200619604841748]}, "properties": {"stop_id": "S050", "x": 690220.9726652396, "y": 2345451.367944154, "n_items": 2, "kg_est": 3.594075624140202, "kg_hi": 11.980252080467338, "bulk_m3": 0.014975315100584172, "crew": "1인", "tools": [], "max_item_kg_hi": 8.83482186854105, "r95_m": 3.0, "buried_suspect": false, "classes": ["plastic_other"], "visit_order": 57}}, {"type": "Feature", "geometry": {"type": "Point", "coordinates": [-157.17448620011695, 21.202289450693385]}, "properties": {"stop_id": "S049", "x": 689490.5141833364, "y": 2345627.8376033013, "n_items": 2, "kg_est": 3.3005883194787358, "kg_hi": 4.548236641746697, "bulk_m3": 0.050988381258053335, "crew": "1인", "tools": [], "max_item_kg_hi": 3.810975562871449, "r95_m": 3.0, "buried_suspect": false, "classes": ["pet_bottle", "plastic_buoy"], "visit_order": 58}}, {"type": "Feature", "geometry": {"type": "Point", "coordinates": [-157.18175497689575, 21.202313498414945]}, "properties": {"stop_id": "S048", "x": 688735.7871870812, "y": 2345621.8180752476, "n_items": 23, "kg_est": 76.3313210227138, "kg_hi": 142.29191187970127, "bulk_m3": 0.7406061362882146, "crew": "1인", "tools": ["절단기"], "max_item_kg_hi": 14.815465296152935, "r95_m": 3.0, "buried_suspect": false, "classes": ["eps_fragment", "net", "pet_bottle", "plastic_buoy", "plastic_other", "rope"], "visit_order": 59}}, {"type": "Feature", "geometry": {"type": "Point", "coordinates": [-157.18190265611244, 21.202410580551273]}, "properties": {"stop_id": "S047", "x": 688720.3307050178, "y": 2345632.390666416, "n_items": 4, "kg_est": 11.405048000315615, "kg_hi": 21.965386053102797, "bulk_m3": 0.1089802687064099, "crew": "1인", "tools": ["절단기"], "max_item_kg_hi": 7.8255335655888425, "r95_m": 3.0, "buried_suspect": false, "classes": ["net", "plastic_buoy"], "visit_order": 60}}, {"type": "Feature", "geometry": {"type": "Point", "coordinates": [-157.18231027200434, 21.20231755098655]}, "properties": {"stop_id": "S046", "x": 688678.1274285126, "y": 2345621.604931295, "n_items": 6, "kg_est": 15.380574286124801, "kg_hi": 38.744206435199025, "bulk_m3": 0.04183462277868312, "crew": "1인", "tools": ["절단기"], "max_item_kg_hi": 10.907038339658557, "r95_m": 3.0, "buried_suspect": false, "classes": ["eps_fragment", "net"], "visit_order": 61}}, {"type": "Feature", "geometry": {"type": "Point", "coordinates": [-157.18260054572835, 21.202273842914792]}, "properties": {"stop_id": "S041", "x": 688648.0447253431, "y": 2345616.4198268307, "n_items": 8, "kg_est": 21.58781320208838, "kg_hi": 37.10413758712043, "bulk_m3": 0.25995224688944196, "crew": "1인", "tools": ["절단기"], "max_item_kg_hi": 9.006968033017964, "r95_m": 3.0, "buried_suspect": false, "classes": ["net", "plastic_buoy"], "visit_order": 62}}, {"type": "Feature", "geometry": {"type": "Point", "coordinates": [-157.18279995024727, 21.202261828041276]}, "properties": {"stop_id": "S040", "x": 688627.3564225376, "y": 2345614.852006023, "n_items": 17, "kg_est": 48.35441325172925, "kg_hi": 81.52639131172538, "bulk_m3": 0.626051745578455, "crew": "1인", "tools": ["절단기"], "max_item_kg_hi": 10.229244809481063, "r95_m": 3.0, "buried_suspect": false, "classes": ["eps_fragment", "net", "plastic_buoy", "plastic_other"], "visit_order": 63}}, {"type": "Feature", "geometry": {"type": "Point", "coordinates": [-157.18354216303288, 21.202569117423224]}, "properties": {"stop_id": "S045", "x": 688549.9044978517, "y": 2345647.9900275418, "n_items": 32, "kg_est": 130.83919659519876, "kg_hi": 187.0922068710114, "bulk_m3": 2.041026937681214, "crew": "2인", "tools": ["절단기"], "max_item_kg_hi": 30.164721724809752, "r95_m": 3.0, "buried_suspect": false, "classes": ["eps_fragment", "net", "pet_bottle", "plastic_buoy", "plastic_other"], "visit_order": 64}}, {"type": "Feature", "geometry": {"type": "Point", "coordinates": [-157.18427506016175, 21.20272933228098]}, "properties": {"stop_id": "S044", "x": 688473.606821997, "y": 2345664.855874582, "n_items": 13, "kg_est": 40.99950644860951, "kg_hi": 68.98045394814388, "bulk_m3": 0.48014004481375, "crew": "1인", "tools": ["절단기"], "max_item_kg_hi": 9.000685414845497, "r95_m": 3.0, "buried_suspect": false, "classes": ["eps_buoy", "net", "plastic_buoy", "plastic_other"], "visit_order": 65}}, {"type": "Feature", "geometry": {"type": "Point", "coordinates": [-157.18504050446978, 21.20279031330802]}, "properties": {"stop_id": "S042", "x": 688394.0559881675, "y": 2345670.69649324, "n_items": 4, "kg_est": 9.132216972731833, "kg_hi": 17.11177629631587, "bulk_m3": 0.0929777722201161, "crew": "1인", "tools": ["절단기"], "max_item_kg_hi": 6.470824034483849, "r95_m": 3.0, "buried_suspect": false, "classes": ["net", "plastic_buoy"], "visit_order": 66}}, {"type": "Feature", "geometry": {"type": "Point", "coordinates": [-157.18534299952134, 21.20281630238881]}, "properties": {"stop_id": "S043", "x": 688362.6160126724, "y": 2345673.2140073534, "n_items": 8, "kg_est": 32.12531102145546, "kg_hi": 64.84941500337617, "bulk_m3": 0.309905654618227, "crew": "1인", "tools": ["절단기"], "max_item_kg_hi": 13.933753924373274, "r95_m": 3.0, "buried_suspect": false, "classes": ["net", "plastic_buoy", "plastic_other"], "visit_order": 67}}, {"type": "Feature", "geometry": {"type": "Point", "coordinates": [-157.18654915561964, 21.203030328601784]}, "properties": {"stop_id": "S039", "x": 688237.113756994, "y": 2345695.4757685014, "n_items": 5, "kg_est": 9.597863893512606, "kg_hi": 17.34027306651129, "bulk_m3": 0.11596528407788176, "crew": "1인", "tools": [], "max_item_kg_hi": 7.294160457231426, "r95_m": 3.0, "buried_suspect": false, "classes": ["pet_bottle", "plastic_buoy", "plastic_other"], "visit_order": 68}}, {"type": "Feature", "geometry": {"type": "Point", "coordinates": [-157.18667420993714, 21.203063240256412]}, "properties": {"stop_id": "S038", "x": 688224.0881081796, "y": 2345698.970959213, "n_items": 6, "kg_est": 22.01391125562261, "kg_hi": 59.4485103891729, "bulk_m3": 0.06664848139853644, "crew": "1인", "tools": ["절단기"], "max_item_kg_hi": 17.654929000465486, "r95_m": 3.0, "buried_suspect": false, "classes": ["net", "plastic_other"], "visit_order": 69}}, {"type": "Feature", "geometry": {"type": "Point", "coordinates": [-157.1868921422667, 21.2031195051641]}, "properties": {"stop_id": "S037", "x": 688201.3896913102, "y": 2345704.9413460987, "n_items": 2, "kg_est": 5.247717228760831, "kg_hi": 14.807879271966916, "bulk_m3": 0.017033367770145594, "crew": "1인", "tools": ["절단기"], "max_item_kg_hi": 8.053534471707556, "r95_m": 3.0, "buried_suspect": false, "classes": ["net", "plastic_other"], "visit_order": 70}}, {"type": "Feature", "geometry": {"type": "Point", "coordinates": [-157.18801753195902, 21.203546406781335]}, "properties": {"stop_id": "S036", "x": 688084.0039767791, "y": 2345750.869078828, "n_items": 5, "kg_est": 5.121543022530492, "kg_hi": 12.78402242490327, "bulk_m3": 0.030110237332919176, "crew": "1인", "tools": [], "max_item_kg_hi": 3.7206270252237026, "r95_m": 3.0, "buried_suspect": false, "classes": ["pet_bottle", "plastic_other"], "visit_order": 71}}, {"type": "Feature", "geometry": {"type": "Point", "coordinates": [-157.18838854255392, 21.20373838289094]}, "properties": {"stop_id": "S035", "x": 688045.2403361686, "y": 2345771.6832990507, "n_items": 20, "kg_est": 51.16494679310955, "kg_hi": 123.82537917268662, "bulk_m3": 0.19829531417384158, "crew": "1인", "tools": ["절단기"], "max_item_kg_hi": 15.126903820118434, "r95_m": 3.0, "buried_suspect": false, "classes": ["eps_fragment", "net", "pet_bottle", "plastic_buoy", "plastic_other"], "visit_order": 72}}, {"type": "Feature", "geometry": {"type": "Point", "coordinates": [-157.18950510951095, 21.204522634282938]}, "properties": {"stop_id": "S034", "x": 687928.3192924284, "y": 2345857.1870676437, "n_items": 8, "kg_est": 45.062577034850754, "kg_hi": 69.32047182441053, "bulk_m3": 0.40282174908675034, "crew": "2인", "tools": ["절단기"], "max_item_kg_hi": 27.737452754623625, "r95_m": 3.0, "buried_suspect": false, "classes": ["eps_buoy", "eps_fragment", "net", "pet_bottle", "plastic_buoy", "plastic_other"], "visit_order": 73}}, {"type": "Feature", "geometry": {"type": "Point", "coordinates": [-157.18980310475067, 21.204626546973348]}, "properties": {"stop_id": "S033", "x": 687897.2483881942, "y": 2345868.338206777, "n_items": 5, "kg_est": 13.685713839549022, "kg_hi": 39.50215610677296, "bulk_m3": 0.06742237471908777, "crew": "1인", "tools": ["절단기"], "max_item_kg_hi": 15.60748487358481, "r95_m": 3.0, "buried_suspect": false, "classes": ["net", "plastic_buoy", "plastic_other"], "visit_order": 74}}, {"type": "Feature", "geometry": {"type": "Point", "coordinates": [-157.19021995637195, 21.205055250669023]}, "properties": {"stop_id": "S032", "x": 687853.4262985305, "y": 2345915.3080763333, "n_items": 7, "kg_est": 27.0997199557517, "kg_hi": 51.070862632977054, "bulk_m3": 0.2241786263442626, "crew": "1인", "tools": ["절단기"], "max_item_kg_hi": 12.73966249793153, "r95_m": 3.0, "buried_suspect": false, "classes": ["eps_buoy", "net", "plastic_buoy", "plastic_other"], "visit_order": 75}}, {"type": "Feature", "geometry": {"type": "Point", "coordinates": [-157.19050392578475, 21.205177705245]}, "properties": {"stop_id": "S031", "x": 687823.7883339468, "y": 2345928.5288801687, "n_items": 26, "kg_est": 69.72964969202698, "kg_hi": 151.26023898012272, "bulk_m3": 0.43465405010576186, "crew": "1인", "tools": ["절단기"], "max_item_kg_hi": 14.130690390858586, "r95_m": 3.0, "buried_suspect": false, "classes": ["eps_fragment", "net", "plastic_buoy", "plastic_other", "rope"], "visit_order": 76}}, {"type": "Feature", "geometry": {"type": "Point", "coordinates": [-157.19063803964778, 21.205282134936535]}, "properties": {"stop_id": "S030", "x": 687809.7319008657, "y": 2345939.931853499, "n_items": 4, "kg_est": 11.547314673352503, "kg_hi": 25.34679533433892, "bulk_m3": 0.08344492057679283, "crew": "1인", "tools": ["절단기"], "max_item_kg_hi": 10.650888020622396, "r95_m": 3.0, "buried_suspect": false, "classes": ["net", "plastic_buoy", "plastic_other"], "visit_order": 77}}, {"type": "Feature", "geometry": {"type": "Point", "coordinates": [-157.1908282326564, 21.205444306311914]}, "properties": {"stop_id": "S028", "x": 687789.7800658109, "y": 2345957.6612720937, "n_items": 53, "kg_est": 126.61770563312751, "kg_hi": 266.8802411859859, "bulk_m3": 0.8852667738405371, "crew": "1인", "tools": ["절단기"], "max_item_kg_hi": 15.113708912018717, "r95_m": 3.0, "buried_suspect": false, "classes": ["eps_buoy", "eps_fragment", "net", "pet_bottle", "plastic_buoy", "plastic_other", "rope"], "visit_order": 78}}, {"type": "Feature", "geometry": {"type": "Point", "coordinates": [-157.19097144292678, 21.20553890704103]}, "properties": {"stop_id": "S029", "x": 687774.7916826948, "y": 2345967.9652519836, "n_items": 4, "kg_est": 5.417467681332472, "kg_hi": 8.575262607431252, "bulk_m3": 0.07883665653083956, "crew": "1인", "tools": [], "max_item_kg_hi": 5.767238564194682, "r95_m": 3.0, "buried_suspect": false, "classes": ["eps_fragment", "pet_bottle", "plastic_buoy"], "visit_order": 79}}, {"type": "Feature", "geometry": {"type": "Point", "coordinates": [-157.19161859706566, 21.20619960136905]}, "properties": {"stop_id": "S026", "x": 687706.7659358543, "y": 2346040.347483565, "n_items": 5, "kg_est": 19.967343203399373, "kg_hi": 31.485584413102643, "bulk_m3": 0.13256105850617306, "crew": "1인", "tools": ["절단기"], "max_item_kg_hi": 16.50827153921538, "r95_m": 3.0, "buried_suspect": false, "classes": ["eps_buoy", "eps_fragment", "net", "plastic_other"], "visit_order": 80}}, {"type": "Feature", "geometry": {"type": "Point", "coordinates": [-157.19189349426824, 21.2063700928637]}, "properties": {"stop_id": "S025", "x": 687678.0095057979, "y": 2346058.897757069, "n_items": 2, "kg_est": 4.759115821375092, "kg_hi": 5.7317174787476, "bulk_m3": 0.03767201652704221, "crew": "1인", "tools": [], "max_item_kg_hi": 5.286261874349239, "r95_m": 3.0, "buried_suspect": false, "classes": ["eps_buoy", "eps_fragment"], "visit_order": 81}}, {"type": "Feature", "geometry": {"type": "Point", "coordinates": [-157.19210349000352, 21.206548622424798]}, "properties": {"stop_id": "S024", "x": 687655.9812875612, "y": 2346078.414959024, "n_items": 27, "kg_est": 32.316256215953906, "kg_hi": 71.95722604671347, "bulk_m3": 0.22249424962185527, "crew": "1인", "tools": ["절단기"], "max_item_kg_hi": 16.334119156364686, "r95_m": 3.0, "buried_suspect": false, "classes": ["eps_fragment", "pet_bottle", "plastic_buoy", "plastic_other", "rope"], "visit_order": 82}}, {"type": "Feature", "geometry": {"type": "Point", "coordinates": [-157.1923811179064, 21.207007767980866]}, "properties": {"stop_id": "S027", "x": 687626.5766236186, "y": 2346128.920810898, "n_items": 15, "kg_est": 40.931450853607984, "kg_hi": 87.77967036773657, "bulk_m3": 0.2761000792674713, "crew": "2인", "tools": ["절단기"], "max_item_kg_hi": 30.0669321548328, "r95_m": 3.0, "buried_suspect": false, "classes": ["eps_buoy", "eps_fragment", "net", "plastic_buoy", "plastic_other"], "visit_order": 83}}, {"type": "Feature", "geometry": {"type": "Point", "coordinates": [-157.19255841426173, 21.207284482453048]}, "properties": {"stop_id": "S023", "x": 687607.8194140644, "y": 2346159.34750247, "n_items": 11, "kg_est": 36.21481638902147, "kg_hi": 52.54009052421834, "bulk_m3": 0.4445541861502481, "crew": "1인", "tools": [], "max_item_kg_hi": 20.62416185317552, "r95_m": 3.0, "buried_suspect": false, "classes": ["eps_buoy", "eps_fragment", "pet_bottle", "plastic_buoy", "plastic_other"], "visit_order": 84}}, {"type": "Feature", "geometry": {"type": "Point", "coordinates": [-157.19270017500415, 21.207392873319833]}, "properties": {"stop_id": "S022", "x": 687592.9644015384, "y": 2346171.1801424716, "n_items": 1, "kg_est": 1.0601077120831262, "kg_hi": 3.533692373610421, "bulk_m3": 0.004417115467013026, "crew": "1인", "tools": [], "max_item_kg_hi": 3.533692373610421, "r95_m": 3.0, "buried_suspect": false, "classes": ["plastic_other"], "visit_order": 85}}, {"type": "Feature", "geometry": {"type": "Point", "coordinates": [-157.19280017774656, 21.207583796896625]}, "properties": {"stop_id": "S019", "x": 687582.3405556568, "y": 2346192.200003783, "n_items": 23, "kg_est": 91.2206154843406, "kg_hi": 119.46071054593645, "bulk_m3": 0.9474319320583547, "crew": "1인", "tools": [], "max_item_kg_hi": 22.86810997820469, "r95_m": 3.0, "buried_suspect": false, "classes": ["eps_buoy", "eps_fragment", "pet_bottle", "plastic_buoy", "plastic_other"], "visit_order": 86}}, {"type": "Feature", "geometry": {"type": "Point", "coordinates": [-157.19290882346772, 21.207714201778547]}, "properties": {"stop_id": "S020", "x": 687570.895859714, "y": 2346206.5092130783, "n_items": 3, "kg_est": 0.8093977534905931, "kg_hi": 1.645780469445045, "bulk_m3": 0.005673134650837922, "crew": "1인", "tools": [], "max_item_kg_hi": 1.0522120421902654, "r95_m": 3.0, "buried_suspect": false, "classes": ["eps_fragment", "pet_bottle"], "visit_order": 87}}, {"type": "Feature", "geometry": {"type": "Point", "coordinates": [-157.19312252465582, 21.207926065559]}, "properties": {"stop_id": "S018", "x": 687548.4411320797, "y": 2346229.7127909283, "n_items": 13, "kg_est": 26.58784195215859, "kg_hi": 36.95287372611353, "bulk_m3": 0.20236095619963218, "crew": "1인", "tools": [], "max_item_kg_hi": 13.94213631600488, "r95_m": 3.0, "buried_suspect": false, "classes": ["eps_buoy", "eps_fragment", "pet_bottle", "plastic_other"], "visit_order": 88}}, {"type": "Feature", "geometry": {"type": "Point", "coordinates": [-157.19327033757605, 21.208109407393938]}, "properties": {"stop_id": "S016", "x": 687532.8631796393, "y": 2346249.836604084, "n_items": 22, "kg_est": 21.983761133301947, "kg_hi": 57.15547862042934, "bulk_m3": 0.13385492884943578, "crew": "1인", "tools": ["절단기"], "max_item_kg_hi": 20.626488999741433, "r95_m": 3.0, "buried_suspect": false, "classes": ["eps_buoy", "eps_fragment", "net", "pet_bottle", "plastic_buoy", "plastic_other"], "visit_order": 89}}, {"type": "Feature", "geometry": {"type": "Point", "coordinates": [-157.1933081435161, 21.20818919906445]}, "properties": {"stop_id": "S017", "x": 687528.8372660219, "y": 2346258.626057778, "n_items": 3, "kg_est": 5.400231903601587, "kg_hi": 7.233286388203809, "bulk_m3": 0.04174793467669258, "crew": "1인", "tools": [], "max_item_kg_hi": 5.617819108070339, "r95_m": 3.0, "buried_suspect": false, "classes": ["eps_buoy", "eps_fragment"], "visit_order": 90}}, {"type": "Feature", "geometry": {"type": "Point", "coordinates": [-157.19396369961464, 21.209353801650494]}, "properties": {"stop_id": "S021", "x": 687459.3050309806, "y": 2346386.7900861567, "n_items": 5, "kg_est": 49.911419001460104, "kg_hi": 60.716906363770555, "bulk_m3": 0.5499975262071902, "crew": "2인", "tools": [], "max_item_kg_hi": 30.091537964917748, "r95_m": 3.0, "buried_suspect": false, "classes": ["eps_buoy", "eps_fragment", "plastic_buoy"], "visit_order": 91}}, {"type": "Feature", "geometry": {"type": "Point", "coordinates": [-157.19419558995037, 21.2097042298738]}, "properties": {"stop_id": "S015", "x": 687434.787285831, "y": 2346425.3135964526, "n_items": 20, "kg_est": 43.41425473587257, "kg_hi": 87.83038347242989, "bulk_m3": 0.4220481731971951, "crew": "1인", "tools": ["절단기"], "max_item_kg_hi": 9.960689531003164, "r95_m": 3.0, "buried_suspect": false, "classes": ["eps_fragment", "net", "plastic_buoy", "plastic_other"], "visit_order": 92}}, {"type": "Feature", "geometry": {"type": "Point", "coordinates": [-157.19436427272734, 21.210045902367998]}, "properties": {"stop_id": "S009", "x": 687416.8429799944, "y": 2346462.942577872, "n_items": 17, "kg_est": 65.50462194618181, "kg_hi": 115.3098539359446, "bulk_m3": 0.49651077578337854, "crew": "1인", "tools": ["절단기"], "max_item_kg_hi": 15.324716382559473, "r95_m": 3.0, "buried_suspect": false, "classes": ["eps_buoy", "eps_fragment", "net", "pet_bottle", "plastic_buoy", "plastic_other", "rope"], "visit_order": 93}}, {"type": "Feature", "geometry": {"type": "Point", "coordinates": [-157.19448983500664, 21.21017597413837]}, "properties": {"stop_id": "S008", "x": 687403.6427352778, "y": 2346477.1949723777, "n_items": 5, "kg_est": 21.766265150477928, "kg_hi": 45.91184162429967, "bulk_m3": 0.16008922875734968, "crew": "1인", "tools": ["절단기"], "max_item_kg_hi": 17.268638876554192, "r95_m": 3.0, "buried_suspect": false, "classes": ["net", "plastic_buoy"], "visit_order": 94}}, {"type": "Feature", "geometry": {"type": "Point", "coordinates": [-157.19825263667624, 21.21410060950586]}, "properties": {"stop_id": "S122", "x": 687008.0398074142, "y": 2346907.264998164, "n_items": 51, "kg_est": 156.91473213190872, "kg_hi": 289.8519568315359, "bulk_m3": 1.2147685850533023, "crew": "2인", "tools": ["절단기"], "max_item_kg_hi": 34.913652538233734, "r95_m": 3.0, "buried_suspect": false, "classes": ["eps_buoy", "eps_fragment", "net", "pet_bottle", "plastic_buoy", "plastic_other", "rope"], "visit_order": 95}}, {"type": "Feature", "geometry": {"type": "Point", "coordinates": [-157.198404624393, 21.21415953055699]}, "properties": {"stop_id": "S121", "x": 686992.186492, "y": 2346913.608909469, "n_items": 4, "kg_est": 11.950576207458367, "kg_hi": 32.62273442589856, "bulk_m3": 0.09512717999454418, "crew": "2인", "tools": [], "max_item_kg_hi": 26.794928146786198, "r95_m": 3.0, "buried_suspect": false, "classes": ["eps_fragment", "plastic_buoy", "plastic_other"], "visit_order": 96}}, {"type": "Feature", "geometry": {"type": "Point", "coordinates": [-157.19848687959444, 21.214347116584065]}, "properties": {"stop_id": "S120", "x": 686983.4105449269, "y": 2346934.280528028, "n_items": 5, "kg_est": 14.659064031890026, "kg_hi": 29.66622939340464, "bulk_m3": 0.10248905147530896, "crew": "1인", "tools": ["절단기"], "max_item_kg_hi": 12.63842190874682, "r95_m": 3.0, "buried_suspect": false, "classes": ["eps_buoy", "eps_fragment", "net", "plastic_buoy"], "visit_order": 97}}, {"type": "Feature", "geometry": {"type": "Point", "coordinates": [-157.2018460273048, 21.214654878535274]}, "properties": {"stop_id": "S117", "x": 686634.2842114895, "y": 2346964.3892563777, "n_items": 9, "kg_est": 45.27678963703922, "kg_hi": 83.38072773906723, "bulk_m3": 0.28309551800300653, "crew": "1인", "tools": ["절단기"], "max_item_kg_hi": 21.46226678759393, "r95_m": 3.0, "buried_suspect": false, "classes": ["eps_buoy", "net", "plastic_buoy", "plastic_other"], "visit_order": 98}}, {"type": "Feature", "geometry": {"type": "Point", "coordinates": [-157.20201657464267, 21.214682731693298]}, "properties": {"stop_id": "S118", "x": 686616.5433857741, "y": 2346967.2719110553, "n_items": 3, "kg_est": 14.918317971909772, "kg_hi": 30.514765630973635, "bulk_m3": 0.12115453284403563, "crew": "1인", "tools": ["절단기"], "max_item_kg_hi": 15.157645806673955, "r95_m": 3.0, "buried_suspect": false, "classes": ["net", "plastic_buoy"], "visit_order": 99}}, {"type": "Feature", "geometry": {"type": "Point", "coordinates": [-157.2024562180394, 21.214867908708133]}, "properties": {"stop_id": "S119", "x": 686570.6678949187, "y": 2346987.25556855, "n_items": 2, "kg_est": 5.20982303410734, "kg_hi": 13.759456297608532, "bulk_m3": 0.015215679106498564, "crew": "1인", "tools": ["절단기"], "max_item_kg_hi": 10.819861448247812, "r95_m": 3.0, "buried_suspect": false, "classes": ["net", "plastic_other"], "visit_order": 100}}, {"type": "Feature", "geometry": {"type": "Point", "coordinates": [-157.205562980456, 21.216396307215593]}, "properties": {"stop_id": "S098", "x": 686246.213882032, "y": 2347152.8138323813, "n_items": 2, "kg_est": 1.6218022402779317, "kg_hi": 5.406007467593106, "bulk_m3": 0.006757509334491382, "crew": "1인", "tools": [], "max_item_kg_hi": 3.1526177317507953, "r95_m": 3.0, "buried_suspect": false, "classes": ["plastic_other"], "visit_order": 101}}, {"type": "Feature", "geometry": {"type": "Point", "coordinates": [-157.2064531788459, 21.216722129061235]}, "properties": {"stop_id": "S097", "x": 686153.3881689635, "y": 2347187.8399399673, "n_items": 3, "kg_est": 28.178047090517282, "kg_hi": 40.405833267220466, "bulk_m3": 0.43561287241691893, "crew": "2인", "tools": ["절단기"], "max_item_kg_hi": 27.96853567944268, "r95_m": 3.0, "buried_suspect": false, "classes": ["net", "plastic_buoy"], "visit_order": 102}}, {"type": "Feature", "geometry": {"type": "Point", "coordinates": [-157.2091400002825, 21.218614090730718]}, "properties": {"stop_id": "S080", "x": 685872.0833594339, "y": 2347394.1513155266, "n_items": 7, "kg_est": 55.77413660567164, "kg_hi": 103.09761948336727, "bulk_m3": 0.08743696239950297, "crew": "2인", "tools": ["절단기"], "max_item_kg_hi": 42.727647709857116, "r95_m": 3.0, "buried_suspect": false, "classes": ["eps_fragment", "net", "plastic_other", "rope"], "visit_order": 103}}, {"type": "Feature", "geometry": {"type": "Point", "coordinates": [-157.2095734232461, 21.218861051736088]}, "properties": {"stop_id": "S081", "x": 685826.7784741053, "y": 2347420.984669486, "n_items": 6, "kg_est": 18.937563229484244, "kg_hi": 31.945176084380293, "bulk_m3": 0.2534435230988984, "crew": "1인", "tools": ["절단기"], "max_item_kg_hi": 7.851980887987181, "r95_m": 3.0, "buried_suspect": false, "classes": ["net", "plastic_buoy", "plastic_other"], "visit_order": 104}}, {"type": "Feature", "geometry": {"type": "Point", "coordinates": [-157.22586996067432, 21.217004641722273]}, "properties": {"stop_id": "S096", "x": 684137.2758455762, "y": 2347196.3988104104, "n_items": 11, "kg_est": 27.02771067542907, "kg_hi": 52.18382735162009, "bulk_m3": 0.2698377835116051, "crew": "1인", "tools": ["절단기"], "max_item_kg_hi": 14.45885323056938, "r95_m": 3.0, "buried_suspect": false, "classes": ["net", "pet_bottle", "plastic_buoy", "plastic_other"], "visit_order": 105}}, {"type": "Feature", "geometry": {"type": "Point", "coordinates": [-157.22861440248934, 21.21715177142765]}, "properties": {"stop_id": "S095", "x": 683852.1799148922, "y": 2347209.4969353103, "n_items": 1, "kg_est": 1.890402305875294, "kg_hi": 6.3013410195843145, "bulk_m3": 0.00787667627448039, "crew": "1인", "tools": [], "max_item_kg_hi": 6.3013410195843145, "r95_m": 3.0, "buried_suspect": false, "classes": ["plastic_other"], "visit_order": 106}}, {"type": "Feature", "geometry": {"type": "Point", "coordinates": [-157.23237979210592, 21.21777097841766]}, "properties": {"stop_id": "S094", "x": 683460.512053728, "y": 2347273.6817789525, "n_items": 8, "kg_est": 15.335725444346675, "kg_hi": 21.852401050814457, "bulk_m3": 0.23967398280578472, "crew": "1인", "tools": [], "max_item_kg_hi": 8.166006004323604, "r95_m": 3.0, "buried_suspect": false, "classes": ["pet_bottle", "plastic_buoy", "plastic_other"], "visit_order": 107}}, {"type": "Feature", "geometry": {"type": "Point", "coordinates": [-157.2346977726317, 21.21738986232653]}, "properties": {"stop_id": "S093", "x": 683220.3439268153, "y": 2347228.800741687, "n_items": 11, "kg_est": 44.433642301985216, "kg_hi": 69.67479481249573, "bulk_m3": 0.4392324628747899, "crew": "1인", "tools": ["절단기"], "max_item_kg_hi": 18.17917677480434, "r95_m": 3.0, "buried_suspect": false, "classes": ["eps_buoy", "eps_fragment", "net", "pet_bottle", "plastic_buoy"], "visit_order": 108}}, {"type": "Feature", "geometry": {"type": "Point", "coordinates": [-157.23745009991424, 21.217590920833494]}, "properties": {"stop_id": "S092", "x": 682934.3655343727, "y": 2347247.87626055, "n_items": 10, "kg_est": 34.343179033431035, "kg_hi": 62.29769555267825, "bulk_m3": 0.36955436062837654, "crew": "1인", "tools": ["절단기"], "max_item_kg_hi": 11.270817117020135, "r95_m": 3.0, "buried_suspect": false, "classes": ["net", "pet_bottle", "plastic_buoy"], "visit_order": 109}}, {"type": "Feature", "geometry": {"type": "Point", "coordinates": [-157.24560588311496, 21.220775781831147]}, "properties": {"stop_id": "S079", "x": 682083.7738820642, "y": 2347591.077990953, "n_items": 1, "kg_est": 1.2349163041880815, "kg_hi": 4.116387680626938, "bulk_m3": 0.0051454846007836725, "crew": "1인", "tools": [], "max_item_kg_hi": 4.116387680626938, "r95_m": 3.0, "buried_suspect": false, "classes": ["plastic_other"], "visit_order": 110}}, {"type": "Feature", "geometry": {"type": "Point", "coordinates": [-157.2991761889317, 21.121690743170564]}, "properties": {"stop_id": "S114", "x": 676640.2671562518, "y": 2336560.5341100367, "n_items": 1, "kg_est": 4.164717331984248, "kg_hi": 10.411793329960618, "bulk_m3": 0.011105912885291325, "crew": "1인", "tools": ["절단기"], "max_item_kg_hi": 10.411793329960618, "r95_m": 3.0, "buried_suspect": false, "classes": ["net"], "visit_order": 111}}, {"type": "Feature", "geometry": {"type": "Point", "coordinates": [-157.29849386108904, 21.120674456890605]}, "properties": {"stop_id": "S115", "x": 676712.3506984996, "y": 2336448.778913535, "n_items": 1, "kg_est": 14.30758804460586, "kg_hi": 23.8459800743431, "bulk_m3": 0.017884485055757324, "crew": "2인", "tools": ["절단기"], "max_item_kg_hi": 23.8459800743431, "r95_m": 3.0, "buried_suspect": false, "classes": ["rope"], "visit_order": 112}}, {"type": "Feature", "geometry": {"type": "Point", "coordinates": [-157.30419046843937, 21.09567474232209]}, "properties": {"stop_id": "S002", "x": 676150.1021466935, "y": 2333674.7293477175, "n_items": 1, "kg_est": 2.107772072679328, "kg_hi": 5.26943018169832, "bulk_m3": 0.005620725527144875, "crew": "1인", "tools": ["절단기"], "max_item_kg_hi": 5.26943018169832, "r95_m": 3.0, "buried_suspect": false, "classes": ["net"], "visit_order": 113}}, {"type": "Feature", "geometry": {"type": "Point", "coordinates": [-157.2998386353682, 21.09397308438198]}, "properties": {"stop_id": "S003", "x": 676604.2548315405, "y": 2333491.1624545474, "n_items": 4, "kg_est": 19.526672090487097, "kg_hi": 40.555498809232205, "bulk_m3": 0.08453611921331225, "crew": "1인", "tools": ["절단기"], "max_item_kg_hi": 13.357489587310294, "r95_m": 3.0, "buried_suspect": false, "classes": ["eps_buoy", "net"], "visit_order": 114}}, {"type": "Feature", "geometry": {"type": "Point", "coordinates": [-157.2958455603884, 21.0935216497503]}, "properties": {"stop_id": "S005", "x": 677019.6617831452, "y": 2333445.6210245145, "n_items": 7, "kg_est": 48.36500782703021, "kg_hi": 94.86497785723704, "bulk_m3": 0.08469253329783845, "crew": "2인", "tools": ["절단기"], "max_item_kg_hi": 26.158360324389278, "r95_m": 3.0, "buried_suspect": false, "classes": ["net", "rope"], "visit_order": 115}}, {"type": "Feature", "geometry": {"type": "Point", "coordinates": [-157.29388883616733, 21.09414361332861]}, "properties": {"stop_id": "S004", "x": 677222.2238676058, "y": 2333516.657055514, "n_items": 1, "kg_est": 13.10598118707863, "kg_hi": 14.978264213804152, "bulk_m3": 0.10484784949662904, "crew": "1인", "tools": [], "max_item_kg_hi": 14.978264213804152, "r95_m": 3.0, "buried_suspect": false, "classes": ["eps_buoy"], "visit_order": 116}}, {"type": "Feature", "geometry": {"type": "Point", "coordinates": [-157.27744779329336, 21.091377879142343]}, "properties": {"stop_id": "S007", "x": 678933.7324845014, "y": 2333228.8594046235, "n_items": 2, "kg_est": 22.93420605254743, "kg_hi": 72.4175833542825, "bulk_m3": 0.08830560560803818, "crew": "장비", "tools": ["절단기"], "max_item_kg_hi": 60.32827289165566, "r95_m": 3.0, "buried_suspect": false, "classes": ["net", "plastic_other"], "visit_order": 117}}, {"type": "Feature", "geometry": {"type": "Point", "coordinates": [-157.14720475523762, 21.092651814833857]}, "properties": {"stop_id": "S006", "x": 692464.7552938159, "y": 2333521.8982178196, "n_items": 2, "kg_est": 4.564073177992047, "kg_hi": 15.213577259973494, "bulk_m3": 0.019016971574966866, "crew": "1인", "tools": [], "max_item_kg_hi": 13.395524065974705, "r95_m": 3.0, "buried_suspect": false, "classes": ["plastic_other"], "visit_order": 118}}, {"type": "Feature", "geometry": {"type": "Point", "coordinates": [-157.10074963279723, 21.100739388353155]}, "properties": {"stop_id": "S124", "x": 697281.0375047468, "y": 2334474.2479109936, "n_items": 1, "kg_est": 0.6450605142475776, "kg_hi": 2.1502017141585923, "bulk_m3": 0.0032253025712378884, "crew": "1인", "tools": [], "max_item_kg_hi": 2.1502017141585923, "r95_m": 3.0, "buried_suspect": false, "classes": ["eps_fragment"], "visit_order": 119}}, {"type": "Feature", "geometry": {"type": "Point", "coordinates": [-157.09878394730544, 21.1006975661129]}, "properties": {"stop_id": "S125", "x": 697485.3305774938, "y": 2334472.0568412566, "n_items": 1, "kg_est": 19.259884767895954, "kg_hi": 64.19961589298651, "bulk_m3": 0.08024951986623315, "crew": "장비", "tools": [], "max_item_kg_hi": 64.19961589298651, "r95_m": 3.0, "buried_suspect": false, "classes": ["plastic_other"], "visit_order": 120}}, {"type": "Feature", "geometry": {"type": "Point", "coordinates": [-156.99058299325728, 21.077022627614042]}, "properties": {"stop_id": "S011", "x": 708760.9446247366, "y": 2331988.835440345, "n_items": 4, "kg_est": 16.77447411187685, "kg_hi": 20.495081657876547, "bulk_m3": 0.16866950213492193, "crew": "1인", "tools": [], "max_item_kg_hi": 13.350812325404549, "r95_m": 3.0, "buried_suspect": false, "classes": ["eps_buoy", "pet_bottle", "plastic_buoy"], "visit_order": 121}}, {"type": "Feature", "geometry": {"type": "Point", "coordinates": [-156.98150983186923, 21.073500538362595]}, "properties": {"stop_id": "S012", "x": 709708.8001124902, "y": 2331610.776247151, "n_items": 2, "kg_est": 1.7186150473168673, "kg_hi": 5.728716824389558, "bulk_m3": 0.007160896030486948, "crew": "1인", "tools": [], "max_item_kg_hi": 4.455084348488674, "r95_m": 3.0, "buried_suspect": false, "classes": ["plastic_other"], "visit_order": 122}}, {"type": "Feature", "geometry": {"type": "Point", "coordinates": [-156.94517430735277, 21.063172305714044]}, "properties": {"stop_id": "S013", "x": 713499.7870726226, "y": 2330515.449913619, "n_items": 1, "kg_est": 0.10505349992832917, "kg_hi": 0.3501783330944306, "bulk_m3": 0.0005252674996416458, "crew": "1인", "tools": [], "max_item_kg_hi": 0.3501783330944306, "r95_m": 3.0, "buried_suspect": false, "classes": ["eps_fragment"], "visit_order": 123}}, {"type": "Feature", "geometry": {"type": "Point", "coordinates": [-156.83594690688275, 21.05434497245597]}, "properties": {"stop_id": "S014", "x": 724865.8959664128, "y": 2329688.2649000534, "n_items": 1, "kg_est": 1.6637218649629908, "kg_hi": 5.545739549876637, "bulk_m3": 0.006932174437345795, "crew": "1인", "tools": [], "max_item_kg_hi": 5.545739549876637, "r95_m": 3.0, "buried_suspect": false, "classes": ["plastic_other"], "visit_order": 124}}, {"type": "Feature", "geometry": {"type": "Point", "coordinates": [-156.788851416069, 21.07595627540104]}, "properties": {"stop_id": "S010", "x": 729728.1534844681, "y": 2332148.5780454595, "n_items": 4, "kg_est": 0.7647717629892044, "kg_hi": 2.5492392099640147, "bulk_m3": 0.0034921717920453578, "crew": "1인", "tools": [], "max_item_kg_hi": 1.326748091602655, "r95_m": 3.0, "buried_suspect": false, "classes": ["eps_fragment", "plastic_other"], "visit_order": 125}}]}