{"type": "FeatureCollection", "features": [{"type": "Feature", "geometry": {"type": "Point", "coordinates": [126.6570694, 37.3842486]}, "properties": {"item_id": "Plastic_Buoy_55", "stop_id": "S001", "cls": "eps_fragment", "cls_raw": "Plastic_Buoy_55", "x": 292573.60886069573, "y": 4140075.490336172, "r95_m": 1.2, "n_views": 24, "area_m2": 0.046533881323098214, "length_m": 0.2737305462360382, "h_p90_m": 0.07283719524067733, "volume_m3": 0.0030416601695210667, "valid_3d": true, "buried_suspect": false, "weight_est_kg": 0.060833203390421337, "weight_lo_kg": 0.030416601695210668, "weight_hi_kg": 0.12166640678084267, "weight_method": "physics+3d", "crew": "1인", "tools": [], "weight_kg": null, "image": ""}}, {"type": "Feature", "geometry": {"type": "Point", "coordinates": [126.6570618, 37.3842818]}, "properties": {"item_id": "Styrofoam_Buoy_22", "stop_id": "S001", "cls": "eps_fragment", "cls_raw": "Styrofoam_Buoy_22", "x": 292573.0274297537, "y": 4140079.191093253, "r95_m": 1.2, "n_views": 24, "area_m2": 0.29934377067866436, "length_m": 0.6212940216064453, "h_p90_m": 0.13082441099924857, "volume_m3": 0.03870271190302783, "valid_3d": true, "buried_suspect": false, "weight_est_kg": 0.7740542380605565, "weight_lo_kg": 0.38702711903027825, "weight_hi_kg": 1.548108476121113, "weight_method": "physics+3d", "crew": "1인", "tools": [], "weight_kg": null, "image": ""}}]}