{"type": "FeatureCollection", "features": [{"type": "Feature", "geometry": {"type": "Point", "coordinates": [126.65592329618988, 37.38361963061825]}, "properties": {"kind": "litter", "cls": "cardboard box", "n": 9, "score": 0.9504101276397705, "frame": 21631}}, {"type": "Feature", "geometry": {"type": "Point", "coordinates": [126.65667988593565, 37.38415376526599]}, "properties": {"kind": "litter", "cls": "cardboard box", "n": 11, "score": 0.9309628009796143, "frame": 31831}}, {"type": "Feature", "geometry": {"type": "Point", "coordinates": [126.65579691373196, 37.38373392440506]}, "properties": {"kind": "litter", "cls": "cardboard box", "n": 6, "score": 0.9199979901313782, "frame": 20371}}, {"type": "Feature", "geometry": {"type": "Point", "coordinates": [126.65681706703843, 37.384533102573414]}, "properties": {"kind": "litter", "cls": "cardboard box", "n": 7, "score": 0.9143575429916382, "frame": 34381}}, {"type": "Feature", "geometry": {"type": "Point", "coordinates": [126.65662935184444, 37.383993423308226]}, "properties": {"kind": "litter", "cls": "cardboard box", "n": 8, "score": 0.9109888076782227, "frame": 30571}}, {"type": "Feature", "geometry": {"type": "Point", "coordinates": [126.65643909513021, 37.383534143233355]}, "properties": {"kind": "litter", "cls": "cardboard box", "n": 12, "score": 0.9097347855567932, "frame": 26041}}, {"type": "Feature", "geometry": {"type": "Point", "coordinates": [126.6567479338074, 37.38433901493819]}, "properties": {"kind": "litter", "cls": "cardboard box", "n": 10, "score": 0.9092578887939453, "frame": 33241}}, {"type": "Feature", "geometry": {"type": "Point", "coordinates": [126.65605071978322, 37.384993403436056]}, "properties": {"kind": "litter", "cls": "cardboard box", "n": 14, "score": 0.9042733907699585, "frame": 4771}}, {"type": "Feature", "geometry": {"type": "Point", "coordinates": [126.65593809081234, 37.38488276571204]}, "properties": {"kind": "litter", "cls": "cardboard box", "n": 12, "score": 0.9016951322555542, "frame": 6211}}, {"type": "Feature", "geometry": {"type": "Point", "coordinates": [126.6565312911447, 37.38370247074138]}, "properties": {"kind": "litter", "cls": "cardboard box", "n": 8, "score": 0.9007256031036377, "frame": 28051}}, {"type": "Feature", "geometry": {"type": "Point", "coordinates": [126.65646670200684, 37.385048378186724]}, "properties": {"kind": "litter", "cls": "cardboard box", "n": 5, "score": 0.9004765152931213, "frame": 301}}, {"type": "Feature", "geometry": {"type": "Point", "coordinates": [126.65592805394765, 37.38386503224126]}, "properties": {"kind": "litter", "cls": "cardboard box", "n": 8, "score": 0.896852433681488, "frame": 19111}}, {"type": "Feature", "geometry": {"type": "Point", "coordinates": [126.65589592122241, 37.38399347986397]}, "properties": {"kind": "litter", "cls": "cardboard box", "n": 10, "score": 0.8965831995010376, "frame": 17461}}, {"type": "Feature", "geometry": {"type": "Point", "coordinates": [126.65606959231756, 37.38351845622648]}, "properties": {"kind": "litter", "cls": "cardboard box", "n": 7, "score": 0.8886498212814331, "frame": 22861}}, {"type": "Feature", "geometry": {"type": "Point", "coordinates": [126.65615273420553, 37.38510016128299]}, "properties": {"kind": "litter", "cls": "cardboard box", "n": 9, "score": 0.8745729327201843, "frame": 3061}}, {"type": "Feature", "geometry": {"type": "Point", "coordinates": [126.6563204543549, 37.385121955026484]}, "properties": {"kind": "litter", "cls": "cardboard box", "n": 11, "score": 0.8705004453659058, "frame": 1621}}, {"type": "Feature", "geometry": {"type": "Point", "coordinates": [126.65559526040524, 37.384522521200125]}, "properties": {"kind": "litter", "cls": "cardboard box", "n": 8, "score": 0.8629984259605408, "frame": 9721}}, {"type": "Feature", "geometry": {"type": "Point", "coordinates": [126.65554529922399, 37.38449263423726]}, "properties": {"kind": "litter", "cls": "cardboard box", "n": 10, "score": 0.8602342009544373, "frame": 11281}}, {"type": "Feature", "geometry": {"type": "Point", "coordinates": [126.65558186427201, 37.38420051473833]}, "properties": {"kind": "litter", "cls": "cardboard box", "n": 11, "score": 0.8424426317214966, "frame": 15061}}, {"type": "Feature", "geometry": {"type": "Point", "coordinates": [126.6561823426838, 37.38514025045128]}, "properties": {"kind": "litter", "cls": "cardboard box", "n": 7, "score": 0.8223819136619568, "frame": 2851}}, {"type": "Feature", "geometry": {"type": "Point", "coordinates": [126.65651171801237, 37.385051083087]}, "properties": {"kind": "litter", "cls": "cardboard box", "n": 7, "score": 0.8203543424606323, "frame": 91}}, {"type": "Feature", "geometry": {"type": "Point", "coordinates": [126.6557162639049, 37.38464630064447]}, "properties": {"kind": "litter", "cls": "cardboard box", "n": 8, "score": 0.8018549680709839, "frame": 8491}}, {"type": "Feature", "geometry": {"type": "Point", "coordinates": [126.65575300015708, 37.38409319553798]}, "properties": {"kind": "litter", "cls": "cardboard box", "n": 2, "score": 0.7983031868934631, "frame": 16141}}, {"type": "Feature", "geometry": {"type": "Point", "coordinates": [126.65622714860747, 37.383462990257144]}, "properties": {"kind": "litter", "cls": "cardboard box", "n": 3, "score": 0.797010600566864, "frame": 23941}}, {"type": "Feature", "geometry": {"type": "Point", "coordinates": [126.65543260722546, 37.384319583286704]}, "properties": {"kind": "litter", "cls": "cardboard box", "n": 2, "score": 0.7503280639648438, "frame": 13231}}, {"type": "Feature", "geometry": {"type": "Point", "coordinates": [126.65659730231039, 37.383875448300785]}, "properties": {"kind": "litter", "cls": "cardboard box", "n": 2, "score": 0.7442875504493713, "frame": 29431}}, {"type": "Feature", "geometry": {"type": "Point", "coordinates": [126.65613277680357, 37.383507200372826]}, "properties": {"kind": "litter", "cls": "cardboard box", "n": 4, "score": 0.6731386184692383, "frame": 23821}}, {"type": "Feature", "geometry": {"type": "Point", "coordinates": [126.65554236677667, 37.38428707900593]}, "properties": {"kind": "litter", "cls": "cardboard box", "n": 2, "score": 0.666426420211792, "frame": 14761}}, {"type": "Feature", "geometry": {"type": "Point", "coordinates": [126.65549618660208, 37.384291709940065]}, "properties": {"kind": "litter", "cls": "cardboard box", "n": 3, "score": 0.5639917254447937, "frame": 14161}}, {"type": "Feature", "geometry": {"type": "Point", "coordinates": [126.65585973002561, 37.38407711580413]}, "properties": {"kind": "litter", "cls": "cardboard box", "n": 4, "score": 0.49265196919441223, "frame": 17281}}, {"type": "Feature", "geometry": {"type": "Point", "coordinates": [126.65590208315938, 37.384817006602795]}, "properties": {"kind": "litter", "cls": "bottle", "n": 2, "score": 0.4246097803115845, "frame": 7411}}]}