{"type": "FeatureCollection", "features": [{"type": "Feature", "geometry": {"type": "Point", "coordinates": [126.65591784519492, 37.383626951656936]}, "properties": {"kind": "litter", "cls": "cardboard box", "n": 5, "score": 0.9504101276397705, "frame": 21631}}, {"type": "Feature", "geometry": {"type": "Point", "coordinates": [126.65580997914277, 37.38374424826594]}, "properties": {"kind": "litter", "cls": "cardboard box", "n": 4, "score": 0.9199979901313782, "frame": 20371}}, {"type": "Feature", "geometry": {"type": "Point", "coordinates": [126.65642022122664, 37.38351995794879]}, "properties": {"kind": "litter", "cls": "cardboard box", "n": 8, "score": 0.9097347855567932, "frame": 26041}}, {"type": "Feature", "geometry": {"type": "Point", "coordinates": [126.65606160739532, 37.384998623740536]}, "properties": {"kind": "litter", "cls": "cardboard box", "n": 9, "score": 0.9042733907699585, "frame": 4771}}, {"type": "Feature", "geometry": {"type": "Point", "coordinates": [126.65596187184934, 37.38490034689612]}, "properties": {"kind": "litter", "cls": "cardboard box", "n": 6, "score": 0.9016951322555542, "frame": 6211}}, {"type": "Feature", "geometry": {"type": "Point", "coordinates": [126.65647250873359, 37.38503937315613]}, "properties": {"kind": "litter", "cls": "cardboard box", "n": 3, "score": 0.9004765152931213, "frame": 301}}, {"type": "Feature", "geometry": {"type": "Point", "coordinates": [126.65593223345005, 37.38387262570707]}, "properties": {"kind": "litter", "cls": "cardboard box", "n": 5, "score": 0.896852433681488, "frame": 19111}}, {"type": "Feature", "geometry": {"type": "Point", "coordinates": [126.65589524350564, 37.3839973887848]}, "properties": {"kind": "litter", "cls": "cardboard box", "n": 6, "score": 0.8965831995010376, "frame": 17461}}, {"type": "Feature", "geometry": {"type": "Point", "coordinates": [126.65606141808428, 37.383528680514004]}, "properties": {"kind": "litter", "cls": "cardboard box", "n": 6, "score": 0.8886498212814331, "frame": 22861}}, {"type": "Feature", "geometry": {"type": "Point", "coordinates": [126.65616068275757, 37.3851049384243]}, "properties": {"kind": "litter", "cls": "cardboard box", "n": 5, "score": 0.8745729327201843, "frame": 3061}}, {"type": "Feature", "geometry": {"type": "Point", "coordinates": [126.65632552987604, 37.3851147368825]}, "properties": {"kind": "litter", "cls": "cardboard box", "n": 6, "score": 0.8705004453659058, "frame": 1621}}, {"type": "Feature", "geometry": {"type": "Point", "coordinates": [126.65562109756712, 37.38454482102927]}, "properties": {"kind": "litter", "cls": "cardboard box", "n": 3, "score": 0.8629984259605408, "frame": 9721}}, {"type": "Feature", "geometry": {"type": "Point", "coordinates": [126.65554305155963, 37.38449794907476]}, "properties": {"kind": "litter", "cls": "cardboard box", "n": 10, "score": 0.8602342009544373, "frame": 11281}}, {"type": "Feature", "geometry": {"type": "Point", "coordinates": [126.65581888023979, 37.38375515277795]}, "properties": {"kind": "litter", "cls": "cardboard box", "n": 2, "score": 0.84978187084198, "frame": 20251}}, {"type": "Feature", "geometry": {"type": "Point", "coordinates": [126.6555789543404, 37.384205847469936]}, "properties": {"kind": "litter", "cls": "cardboard box", "n": 6, "score": 0.8424426317214966, "frame": 15061}}, {"type": "Feature", "geometry": {"type": "Point", "coordinates": [126.65560881091406, 37.384529897357815]}, "properties": {"kind": "litter", "cls": "cardboard box", "n": 4, "score": 0.8376986384391785, "frame": 9781}}, {"type": "Feature", "geometry": {"type": "Point", "coordinates": [126.65587734350656, 37.384010982504805]}, "properties": {"kind": "litter", "cls": "cardboard box", "n": 3, "score": 0.8300191164016724, "frame": 17371}}, {"type": "Feature", "geometry": {"type": "Point", "coordinates": [126.65590089989729, 37.38363658248747]}, "properties": {"kind": "litter", "cls": "cardboard box", "n": 4, "score": 0.8260366916656494, "frame": 21421}}, {"type": "Feature", "geometry": {"type": "Point", "coordinates": [126.65594436357603, 37.38389364995968]}, "properties": {"kind": "litter", "cls": "cardboard box", "n": 3, "score": 0.8253573775291443, "frame": 19021}}, {"type": "Feature", "geometry": {"type": "Point", "coordinates": [126.65617807581641, 37.38512267921471]}, "properties": {"kind": "litter", "cls": "cardboard box", "n": 10, "score": 0.8223819136619568, "frame": 2851}}, {"type": "Feature", "geometry": {"type": "Point", "coordinates": [126.65650468560129, 37.38503248469801]}, "properties": {"kind": "litter", "cls": "cardboard box", "n": 7, "score": 0.8203543424606323, "frame": 91}}, {"type": "Feature", "geometry": {"type": "Point", "coordinates": [126.65556329644191, 37.38421614481924]}, "properties": {"kind": "litter", "cls": "cardboard box", "n": 5, "score": 0.8020700216293335, "frame": 14881}}, {"type": "Feature", "geometry": {"type": "Point", "coordinates": [126.6557253563966, 37.38465721772841]}, "properties": {"kind": "litter", "cls": "cardboard box", "n": 5, "score": 0.8018549680709839, "frame": 8491}}, {"type": "Feature", "geometry": {"type": "Point", "coordinates": [126.65574175008878, 37.38410503254673]}, "properties": {"kind": "litter", "cls": "cardboard box", "n": 2, "score": 0.7983031868934631, "frame": 16141}}, {"type": "Feature", "geometry": {"type": "Point", "coordinates": [126.65648447397089, 37.38503382939139]}, "properties": {"kind": "litter", "cls": "cardboard box", "n": 2, "score": 0.797848105430603, "frame": 211}}, {"type": "Feature", "geometry": {"type": "Point", "coordinates": [126.65619519843914, 37.38346181132607]}, "properties": {"kind": "litter", "cls": "cardboard box", "n": 3, "score": 0.797010600566864, "frame": 23941}}, {"type": "Feature", "geometry": {"type": "Point", "coordinates": [126.65607761158635, 37.38501704300818]}, "properties": {"kind": "litter", "cls": "cardboard box", "n": 6, "score": 0.7961758375167847, "frame": 4531}}, {"type": "Feature", "geometry": {"type": "Point", "coordinates": [126.65543501969587, 37.38433040413641]}, "properties": {"kind": "litter", "cls": "cardboard box", "n": 2, "score": 0.7503280639648438, "frame": 13231}}, {"type": "Feature", "geometry": {"type": "Point", "coordinates": [126.65594679995719, 37.38488595770048]}, "properties": {"kind": "litter", "cls": "cardboard box", "n": 6, "score": 0.7337334752082825, "frame": 6391}}, {"type": "Feature", "geometry": {"type": "Point", "coordinates": [126.65634947628949, 37.38510304095377]}, "properties": {"kind": "litter", "cls": "cardboard box", "n": 4, "score": 0.7055174112319946, "frame": 1531}}, {"type": "Feature", "geometry": {"type": "Point", "coordinates": [126.65573883847063, 37.384670942865235]}, "properties": {"kind": "litter", "cls": "cardboard box", "n": 3, "score": 0.6965267062187195, "frame": 8401}}, {"type": "Feature", "geometry": {"type": "Point", "coordinates": [126.65615469688527, 37.38348204513176]}, "properties": {"kind": "litter", "cls": "cardboard box", "n": 4, "score": 0.6731386184692383, "frame": 23821}}, {"type": "Feature", "geometry": {"type": "Point", "coordinates": [126.65553882006496, 37.38426984740364]}, "properties": {"kind": "litter", "cls": "cardboard box", "n": 2, "score": 0.666426420211792, "frame": 14761}}, {"type": "Feature", "geometry": {"type": "Point", "coordinates": [126.65640262291129, 37.383507396484696]}, "properties": {"kind": "litter", "cls": "cardboard box", "n": 3, "score": 0.5978482365608215, "frame": 25861}}, {"type": "Feature", "geometry": {"type": "Point", "coordinates": [126.6554905119606, 37.38428582596422]}, "properties": {"kind": "litter", "cls": "cardboard box", "n": 3, "score": 0.5639917254447937, "frame": 14161}}, {"type": "Feature", "geometry": {"type": "Point", "coordinates": [126.6558567015133, 37.38405816369233]}, "properties": {"kind": "litter", "cls": "cardboard box", "n": 4, "score": 0.49265196919441223, "frame": 17281}}, {"type": "Feature", "geometry": {"type": "Point", "coordinates": [126.6559009749479, 37.384829951980855]}, "properties": {"kind": "litter", "cls": "bottle", "n": 2, "score": 0.4246097803115845, "frame": 7411}}]}